{"type":"FeatureCollection","features":[{"type":"Feature","properties":{},"geometry":{"coordinates":[[-99.20716869187048,19.469721501671486],[-99.2068566960864,19.47121580303211],[-99.20522183817755,19.472086491960013],[-99.2034372222922,19.472745388579554],[-99.20094125601916,19.47333368686857],[-99.19077572154876,19.470522214623387],[-99.19042947413108,19.47044191729475],[-99.19070223245035,19.464682164715327]],"type":"LineString"}},{"type":"Feature","properties":{},"geometry":{"coordinates":[[-99.19069190101362,19.464697067419962],[-99.18799377433649,19.463785958308222],[-99.18851943170714,19.46079198661762],[-99.18541895989732,19.459979112082195],[-99.180938710974,19.459290082326262],[-99.17737142386102,19.458683999147254],[-99.16368409512022,19.45645343422177],[-99.16419505909154,19.452740990206507],[-99.1643590141283,19.450159069924595],[-99.16581354616024,19.443729430228927],[-99.16838347533357,19.438410954779087],[-99.17765719169178,19.423616914534577],[-99.17495113437947,19.423194182552976],[-99.17490158599222,19.42312580472266],[-99.17517662018332,19.422927006756325],[-99.17519929358856,19.422769149450758],[-99.1752473191583,19.422620059332644],[-99.175397483665,19.422727333868608],[-99.17553230758178,19.422708451984946],[-99.17564951159812,19.422597093292765],[-99.17636847898103,19.421350742568293],[-99.17639198054593,19.421203149607607],[-99.17627093091598,19.421038361487902],[-99.17635668916078,19.42087916938243],[-99.1764331456662,19.420660490041115],[-99.17651033519472,19.42044875793688],[-99.17663089330955,19.420264446992874],[-99.17702999622891,19.420114444121523],[-99.17724743213489,19.419948338604982],[-99.177642299949,19.419354164420895],[-99.17776780110681,19.419236575484078],[-99.18426272132571,19.40781996160841],[-99.17119487365973,19.403586698022764],[-99.17042081290191,19.399873986432326],[-99.17494099082447,19.398587170485683],[-99.17528277483089,19.398136533882365],[-99.17913497532686,19.397319895844362],[-99.17962580706502,19.397443482661288],[-99.18218672299113,19.396923521445686],[-99.18307219069939,19.396541575790522],[-99.18649048142328,19.39566910301545],[-99.18888088410637,19.395627596612982],[-99.19070180389473,19.399745000888487],[-99.19158813040204,19.40062644552826],[-99.19225583505704,19.401206924304972],[-99.1922143680358,19.403780958584576],[-99.19804135156132,19.40304979123181],[-99.2017485765468,19.40158919032534],[-99.21056704667974,19.400460539122108],[-99.21264055071516,19.39975056219984],[-99.2144358671004,19.3988420034306],[-99.21830009294078,19.397562353810514],[-99.21832085791121,19.397752897502443],[-99.22319185140779,19.39598306027814],[-99.2252951411602,19.395574877990313],[-99.22702013844602,19.395912865150052],[-99.22919214942634,19.395524472447846],[-99.23125360517139,19.394759880126585],[-99.23285792256267,19.394937529795783],[-99.23571839796581,19.39362698348863],[-99.23764662060067,19.393504780048005],[-99.23877134579332,19.392782936409418],[-99.23907826346685,19.391943897166527],[-99.23910267142705,19.390679246177328],[-99.23961064050364,19.38913690815906],[-99.24194794701616,19.387522806520508],[-99.2431338164075,19.386931678240487],[-99.2440508613004,19.38707633773707],[-99.24566835673049,19.387332309932873],[-99.24738886633669,19.386218764788424],[-99.24771691497077,19.386721815094234],[-99.248259919817,19.387751234241733],[-99.24837312516713,19.3904511910481],[-99.24764737966059,19.392012970002895],[-99.24672802043874,19.392826783564146],[-99.24667706512116,19.393933090504632],[-99.24727353935532,19.394390995893687],[-99.24804820837089,19.39423189053906],[-99.24894475304743,19.393525006175068],[-99.2498539882447,19.39364259993475],[-99.25048834907703,19.393779005123335],[-99.25115569026704,19.393657213969718],[-99.25175437647825,19.39340563703948],[-99.25280112156557,19.39356839557186],[-99.253873435985,19.39464256888658],[-99.25451888970609,19.395023434344267],[-99.25472685935365,19.39522893510548],[-99.25480026739223,19.395254940126648],[-99.25492653430685,19.395134993272393],[-99.25488946839418,19.394915004636488],[-99.25485116013368,19.394789503496],[-99.25442089606035,19.394359262867837],[-99.25432582067408,19.394206525600865],[-99.25442423877604,19.393997883234704],[-99.25468658586985,19.393791336938065],[-99.25500567545595,19.393662888970965],[-99.2555451985337,19.393530949054508],[-99.25597741640317,19.3934274706359],[-99.25667969594679,19.392950620364175],[-99.25775496020557,19.39285170077558],[-99.25833357535667,19.392712651052506],[-99.25876719966651,19.39255865935209],[-99.2590840696876,19.392709376724113],[-99.25934603866139,19.39314409971],[-99.25963767548805,19.3942503067005],[-99.25947570603482,19.39453601670857],[-99.25813955247219,19.395278449711668],[-99.25568032976129,19.397247780505396],[-99.2552021670051,19.399221547960252],[-99.25539393463403,19.400242513691822],[-99.25518564712377,19.401536996551826],[-99.25536765103233,19.40210745960995],[-99.25533428607837,19.402662963557006],[-99.25574808514011,19.403686587243726],[-99.25445637752486,19.404786021883282],[-99.2533732934161,19.40513105141156],[-99.25286282654048,19.405668411275173],[-99.25217259908254,19.406099977233566],[-99.25131764641438,19.406262035639188],[-99.25071912682817,19.406596334892427],[-99.2500747184935,19.40724578690866],[-99.24961920382364,19.407419464073158],[-99.2492840298447,19.4076239946113],[-99.24891216609848,19.40806386313193],[-99.24831530413253,19.40867117863209],[-99.24417694546108,19.409986306347733],[-99.24362201180037,19.410656244475135],[-99.24294801895553,19.410873983885807],[-99.24232924368651,19.411327165322035],[-99.23964578765316,19.41223568631021],[-99.23897217256851,19.412035605393598],[-99.23815173736324,19.412095311668025],[-99.23747027316901,19.41225805230995],[-99.23708531062094,19.412505234390466],[-99.23544232929174,19.41545181536243],[-99.23466266365105,19.415981442109015],[-99.23451904540123,19.41641544020105],[-99.2342240114749,19.41669366969262],[-99.23371480001069,19.416723850069403],[-99.23303871197663,19.41861467077743],[-99.23295238429426,19.41928084391138],[-99.23244415067232,19.419483162017542],[-99.23234456836695,19.419824183131922],[-99.23192574190136,19.419950555755094],[-99.2315902617811,19.420368978397576],[-99.23154391847216,19.420744140731586],[-99.23102459028817,19.421024487612456],[-99.23093894401367,19.421534243025093],[-99.23060653693085,19.421753679428022],[-99.230263674398,19.42179308862039],[-99.22954991928052,19.422119011781746],[-99.22894019901962,19.422667651752917],[-99.22865393945553,19.4231217454617],[-99.22812517992234,19.42363432553995],[-99.22786435648888,19.423755491808222],[-99.22775146016029,19.424076795780962],[-99.22701051426858,19.42432641732944],[-99.22624642194558,19.425345919836815],[-99.22578530608685,19.42639689034577],[-99.2243330436406,19.427055035892394],[-99.2227501859239,19.426387529648338],[-99.22230316519588,19.42698154329743],[-99.222559117281,19.42735717804436],[-99.22289566146748,19.428132024146407],[-99.223103311609,19.42917094744034],[-99.22347801521535,19.42954520482469],[-99.22484172047054,19.430341143014388],[-99.22501659915663,19.430605852074336],[-99.22666772659316,19.4311878669196],[-99.22684883859411,19.43175141367435],[-99.22615271483433,19.433889535199626],[-99.22638769398688,19.434218175807302],[-99.22731062608835,19.43473090826147],[-99.22749244151082,19.435248585418933],[-99.22723224834085,19.435907536701706],[-99.2280617699468,19.43619507698979],[-99.22816939208965,19.436036757019778],[-99.22870114777929,19.436713092243636],[-99.22855251006953,19.436827453133702],[-99.22965665963251,19.43741378192047],[-99.22052565034325,19.44374783789381],[-99.21866920420376,19.443990243605228],[-99.21816231178431,19.444173108773526],[-99.22005239278056,19.44561607897255],[-99.22004097928207,19.446218925638846],[-99.22015290288151,19.448115021046007],[-99.22000731243217,19.452915457637573],[-99.21848128762782,19.453077396325725],[-99.21728385891262,19.453737059234314],[-99.21536858200557,19.456187539706903],[-99.21429433539078,19.45850210378633],[-99.21395205611925,19.460438546567786],[-99.21255495596716,19.462575595983807],[-99.21354905114592,19.46293375608832],[-99.21244064412059,19.466274878567233],[-99.211884408013,19.46723519689644],[-99.21155533535823,19.467475714083974],[-99.21155316859982,19.46789655026859],[-99.21087952042053,19.468317459831127],[-99.2099234315554,19.469417774383857],[-99.2089856983754,19.470005493754257],[-99.20779479924745,19.469754168684446],[-99.207140301974,19.469718083649113]],"type":"LineString"}},{"type":"Feature","properties":{},"geometry":{"coordinates":[[-99.15704706597248,19.502896224533103],[-99.14289229813656,19.46523735593344],[-99.14836319618308,19.46350055655593],[-99.15048855677584,19.463014054118474],[-99.15318627277705,19.463341453314428],[-99.15524779528677,19.463668922510323],[-99.15790424253723,19.464202150330664],[-99.15905832471196,19.463760245011983],[-99.15987481505046,19.462972818845586],[-99.16043399385858,19.46186390075431],[-99.16106467348074,19.460756244028673],[-99.1622057527307,19.46011245622681],[-99.16287416084604,19.45902056906165],[-99.16331296037896,19.457982115342105],[-99.16365808450385,19.45646695954207],[-99.17812507680031,19.458866924725598],[-99.1818115368758,19.4594146425343],[-99.18459419112729,19.45986784363636],[-99.18546408392791,19.460014283884234],[-99.18856310140704,19.46086470899337],[-99.18799697818027,19.463804046293816],[-99.19067891821977,19.464806311304102],[-99.19039568990692,19.470441398883395],[-99.2009143041423,19.4733850004735],[-99.20344794292251,19.47276142868664],[-99.20510616517873,19.47218507275568],[-99.20685497563987,19.47124296898285],[-99.21348093382375,19.47302777305974],[-99.2144297671193,19.473356888868324],[-99.2151479908688,19.473482451544342],[-99.22109613626691,19.475085216756213],[-99.22045309524056,19.477937441467688],[-99.21859608647497,19.48340626701321],[-99.21839979066317,19.48431369181496],[-99.21805411846348,19.48484601425804],[-99.21729650690509,19.487077886633728],[-99.21401686501981,19.496650630411168],[-99.21218430501204,19.50250380192915],[-99.21183588780211,19.50401945111281],[-99.21073767468094,19.50942234969436],[-99.20949489691587,19.51205376700365],[-99.20909969587039,19.512608644873183],[-99.20674697523893,19.51386715067416],[-99.20478348728386,19.515059709307636],[-99.20422888425996,19.51505494760565],[-99.19199129062038,19.51132128480552],[-99.19189621611022,19.510784405075327],[-99.18831139957736,19.509841693588314],[-99.18732357294913,19.509473983818353],[-99.18486394059197,19.508441632909154],[-99.18275459972433,19.50772871208089],[-99.1823215486674,19.5074926768021],[-99.17748998994516,19.506328802305177],[-99.17694754666122,19.506380647314316],[-99.17538166157576,19.50750850418717],[-99.17388222645326,19.50797013796226],[-99.17308683592871,19.508613379922977],[-99.17256842457051,19.508627318759608],[-99.1721711921764,19.508370255172906],[-99.16946659516202,19.50721974986743],[-99.16906844692423,19.5070020466775],[-99.16337273461382,19.504795812310093],[-99.15704638038288,19.502892231109243]],"type":"LineString"}},{"type":"Feature","properties":{},"geometry":{"coordinates":[[-99.12574170667033,19.404288527380317],[-99.12628898981458,19.407589099306264],[-99.12677326420179,19.40896080766791],[-99.12744747923013,19.408998387589023],[-99.12808110880901,19.413479494735455],[-99.12811768967528,19.414266243063082],[-99.12705454171666,19.420629372064013],[-99.1260371018365,19.4228943312162],[-99.12301843320107,19.44261062333473],[-99.1258973564173,19.447526219224684],[-99.12540080600371,19.450534780151813],[-99.12482337386103,19.45208992567538],[-99.12370643213787,19.456470227345918],[-99.12324355163749,19.45824535592908],[-99.12216823866811,19.459824729250087],[-99.12744882187197,19.461484677322744],[-99.13319141969306,19.46493517593113],[-99.14081252480662,19.46542492516801],[-99.14134692852521,19.465509232116176],[-99.14156255351776,19.465746049348184],[-99.14203569999705,19.465788735641326],[-99.14240213544421,19.465596534940033],[-99.1428143148928,19.46524346627551],[-99.14837247305289,19.463488401789647],[-99.15056634685988,19.46304405763115],[-99.15288934693068,19.463183213291458],[-99.1560372152324,19.463742943592194],[-99.15790854552749,19.464072709428095],[-99.15872411727867,19.46383038750234],[-99.15924266849174,19.463478466506658],[-99.15968400507245,19.462880059364707],[-99.16038644167824,19.461632436183265],[-99.16096492725062,19.460727216703916],[-99.16207523688392,19.460089069014217],[-99.16248708690944,19.45950649490908],[-99.16324931420598,19.458000761238694],[-99.16372038244279,19.455709209830943],[-99.16411180659298,19.452759871638804],[-99.16426175003234,19.450205763755918],[-99.16573996971958,19.443784031715495],[-99.1683300104063,19.43829881574854],[-99.17755744945501,19.42365567264484],[-99.17482027511453,19.423249644106917],[-99.17483985565839,19.423131498409546],[-99.17512722563754,19.422922217728754],[-99.17523289623195,19.422595054113017],[-99.17537804207153,19.422664548410353],[-99.1754473958551,19.42270389312135],[-99.1755468815616,19.42262462082452],[-99.1756871805681,19.42246940522503],[-99.17634663186023,19.421326494841566],[-99.17637558411573,19.421225245152527],[-99.17624942304238,19.421048373640417],[-99.17634572081288,19.42085981124923],[-99.17649549567379,19.420444089650857],[-99.17659367353787,19.420275098883835],[-99.17692465449143,19.420128606714727],[-99.17723303893094,19.41993827965632],[-99.17760430265669,19.419334171957885],[-99.17774521020118,19.419229377089906],[-99.18421825627459,19.407809520642815],[-99.17118022526127,19.40363077128943],[-99.17028437755086,19.399894843034247],[-99.16669827018536,19.400739350708903],[-99.16390200822954,19.40197879424356],[-99.15659886717486,19.40406004147617],[-99.14797023742294,19.403901850217338],[-99.13666797721999,19.40327152518104],[-99.13058457273237,19.40304694574374],[-99.12573483711435,19.404281108267796]],"type":"LineString"}},{"type":"Feature","properties":{},"geometry":{"coordinates":[[-99.06732690054672,19.446625864047874],[-99.0623306797551,19.44492160376474],[-99.05235099069911,19.448729161165744],[-99.05087938669507,19.450165821252597],[-99.06337127728608,19.47862010429789],[-99.06296487490707,19.47992311101858],[-99.0636035997412,19.48002960091216],[-99.0632361024664,19.48130410195769],[-99.06462752561677,19.48164469639461],[-99.06734848440473,19.487796667931676],[-99.06794296128618,19.489071398705775],[-99.06395109949544,19.49865107734678],[-99.06549733102906,19.499425744207628],[-99.07316582165322,19.502326016242648],[-99.07338412181187,19.502607738578348],[-99.07423915824084,19.50274089531227],[-99.08943368060845,19.509152017847597],[-99.09738491467321,19.512676410222852],[-99.10345367478112,19.51129387743532],[-99.10434471924069,19.51088703628919],[-99.105418161926,19.510358828954452],[-99.10594457059406,19.50997324301582],[-99.10641680914244,19.510346397079303],[-99.10670632259269,19.510476383084296],[-99.1070473110347,19.510140377767144],[-99.10731023363206,19.509742039477516],[-99.10766046739198,19.510879274420503],[-99.10780193143236,19.510507396927622],[-99.10870134498872,19.51062988841062],[-99.10893194053645,19.511067321634286],[-99.10937655517412,19.510326852962606],[-99.10945088494168,19.510248915367328],[-99.10999699067399,19.510591598223996],[-99.11033497480646,19.511085095252056],[-99.1105904509607,19.511159917436558],[-99.11438352336066,19.511060882173425],[-99.11595605818066,19.513061730817967],[-99.11687848287329,19.51323838021858],[-99.12097123281335,19.516234833399338],[-99.12362506198154,19.518873081451247],[-99.12526586335187,19.520485649814404],[-99.12610453344287,19.521654095712577],[-99.12673067794968,19.522846229213513],[-99.12738295245772,19.524108559671078],[-99.12804184680273,19.52456809397745],[-99.12817805518621,19.52590272452572],[-99.12739251089226,19.5317702035957],[-99.12739644095802,19.535115129517408],[-99.13055629884002,19.53610555045863],[-99.12807262325305,19.53950617095201],[-99.12584122754502,19.541765364026915],[-99.12332503939524,19.545016010188817],[-99.12267041840033,19.545635697118158],[-99.1210266091926,19.549102936932],[-99.11844461955408,19.55222825359958],[-99.11556977123573,19.554059264204326],[-99.11572331827898,19.556565644542417],[-99.10809395860099,19.564888432085198],[-99.111836498308,19.568783585331886],[-99.11257110239482,19.571322931355738],[-99.11261200876598,19.572212713033608],[-99.11467718990963,19.57982856216337],[-99.1169359369163,19.58146618401318],[-99.11859610413164,19.584510412564356],[-99.11790881173616,19.59069409612256],[-99.11945545897261,19.591979832895532],[-99.1237392780835,19.592780130269645],[-99.12707519164043,19.588489659831055],[-99.13373784744526,19.586251989953468],[-99.13376913931371,19.584906501943124],[-99.13788190430547,19.581141943640105],[-99.13914093089853,19.578445979384256],[-99.1395586485073,19.575467861274262],[-99.14359957437887,19.57229150001062],[-99.14476712791824,19.570808148454063],[-99.14582603937374,19.568731304370374],[-99.14577429772156,19.567426902857818],[-99.14597756691906,19.565913330332222],[-99.14677908449802,19.564639728384194],[-99.14894470397998,19.562495961279367],[-99.14924525917674,19.56194768533186],[-99.15092127272729,19.56050723711101],[-99.15153391822511,19.561322944779064],[-99.15281813147504,19.561966098456992],[-99.15330483320882,19.561537194260026],[-99.15429527726913,19.561389860515305],[-99.15609656480326,19.56017725006747],[-99.15807467618447,19.557363191228163],[-99.15807036617309,19.556633494632095],[-99.15778520989704,19.55599631768868],[-99.15756641087954,19.555062228728914],[-99.15808991809462,19.553686598171993],[-99.16088163301282,19.549333124974325],[-99.15999278613006,19.549125793311788],[-99.1594068791223,19.549139475164765],[-99.15851249065699,19.54876244621458],[-99.15866395203807,19.548384677240477],[-99.1513749449035,19.544982941142365],[-99.15113140589641,19.54474291805211],[-99.15403908010961,19.5402255265859],[-99.15793868685898,19.53545721133827],[-99.15853131299241,19.53393498285972],[-99.15583509958925,19.53244222290361],[-99.15830306128929,19.52931122476383],[-99.15845406714693,19.528939731161714],[-99.1571412615615,19.528234432781588],[-99.15737532888174,19.527865130334618],[-99.15812402850297,19.527548550282162],[-99.15907533992348,19.5270298676688],[-99.15993135821476,19.527057999177714],[-99.16988497644121,19.53003877418324],[-99.17493391250743,19.531876694377885],[-99.17606200432203,19.532015717374946],[-99.17624816856727,19.53089868232651],[-99.17701327619332,19.529364453571347],[-99.17619805257846,19.52889381038392],[-99.17530576920191,19.530046008815887],[-99.17138273433582,19.52718338371362],[-99.17455096381244,19.524096945057224],[-99.1742588168064,19.523599526622306],[-99.17045063468451,19.522238144165243],[-99.16317109730996,19.518329906401874],[-99.1607323476812,19.512163419072607],[-99.15705925058849,19.502904747317302],[-99.14286749409554,19.465250236417035],[-99.1422390796866,19.465761428828202],[-99.14172040576818,19.46588487811728],[-99.14126890302636,19.465561409636848],[-99.13322361878122,19.46499051057819],[-99.12744526694887,19.46151970366887],[-99.12213575716767,19.459861503030538],[-99.11710141989842,19.45803839698172],[-99.1118175430295,19.453873595213338],[-99.10119633268954,19.449843959161313],[-99.09975051254474,19.449981178817595],[-99.09437004648115,19.451960351908795],[-99.09276624568669,19.451316068157624],[-99.08728875522252,19.44612389264141],[-99.08705648058786,19.445887852634883],[-99.08071410709046,19.45020976155213],[-99.07780077123623,19.44968306865175],[-99.068822562226,19.44653925916694],[-99.0680520950472,19.44637192856625],[-99.0676390087426,19.44651426281935],[-99.06732613580215,19.446626243010044]],"type":"LineString"}},{"type":"Feature","properties":{},"geometry":{"coordinates":[[-99.05088139387112,19.4501655092767],[-99.0471577675605,19.443241216598622],[-99.0464451252363,19.44239851074272],[-99.04813570095637,19.43979269237282],[-99.05525181903387,19.424209357463837],[-99.05597488930144,19.422058805910595],[-99.05719698429543,19.421073902078305],[-99.05899541432213,19.42086014364031],[-99.06375764089398,19.420811847646178],[-99.06865480203275,19.420665644799726],[-99.06986516518272,19.41990259447884],[-99.07269621436674,19.41552424082741],[-99.0766502931278,19.409360167672162],[-99.07740537082779,19.408512168564314],[-99.07723165176105,19.408212106814375],[-99.07791956121827,19.40727330430046],[-99.07897986443021,19.406863661216832],[-99.0971523168583,19.409142311017803],[-99.09856853145432,19.409041282178194],[-99.1137812235681,19.40574896973932],[-99.12014569881231,19.405288801191574],[-99.12564429048469,19.40427888342147],[-99.1262147979889,19.407837328154415],[-99.12663983969,19.40903129427828],[-99.12736669332877,19.409112223450535],[-99.1280590696766,19.414361837094035],[-99.12694891161337,19.42071509100269],[-99.12581545487681,19.4231768598642],[-99.12293309110684,19.44271710028285],[-99.12579174073039,19.447511181769613],[-99.12538538712123,19.450446459640276],[-99.12463908896905,19.452351652254166],[-99.12319918528465,19.458119465635633],[-99.12208945836828,19.45974613772215],[-99.11701776729211,19.457927887926786],[-99.11183613843023,19.453735787777703],[-99.10112736416043,19.449690201467376],[-99.09950815515364,19.449798438147482],[-99.09469726418016,19.451664517825805],[-99.09392861064852,19.45171987910571],[-99.09281329778145,19.45122603012838],[-99.08711484939259,19.4456589437212],[-99.08072031487788,19.450046799723623],[-99.07785574434189,19.449524190527356],[-99.0683929203087,19.446280436935737],[-99.06733160481666,19.44652688542888],[-99.0623829090419,19.444930006404704],[-99.05210831177003,19.4486680346604],[-99.05088330123144,19.45015218490515]],"type":"LineString"}},{"type":"Feature","properties":{},"geometry":{"coordinates":[[-99.05587635047159,19.421773212117245],[-99.05815116103861,19.400662245779543],[-99.06089778063898,19.382693016291014],[-99.0667996031438,19.383581921072818],[-99.08395630460235,19.392727029643268],[-99.08461940568827,19.389536634864896],[-99.08647156720875,19.390150920816723],[-99.08688852030697,19.390058707541684],[-99.0887879141119,19.390401412785224],[-99.09589955273525,19.37970561718471],[-99.10251968366437,19.380401301339262],[-99.11056300338298,19.3813300844173],[-99.11634147739466,19.382076276203506],[-99.11809532942995,19.38223616773999],[-99.12250629747896,19.382465958349258],[-99.1225697812291,19.375694416196666],[-99.12957091698199,19.376990261915992],[-99.13401994357004,19.37745499843051],[-99.13548437546318,19.377292248383256],[-99.1311019600575,19.39661879391133],[-99.13095757377991,19.39711938415298],[-99.13088260504688,19.398837424551655],[-99.137075368736,19.39903893996093],[-99.13649859003556,19.40322877596536]],"type":"LineString"}},{"type":"Feature","properties":{},"geometry":{"coordinates":[[-99.1364991349297,19.40321816056229],[-99.1305064160272,19.402964221209515],[-99.12561500868529,19.40420687928112],[-99.12019607620984,19.405174576156213],[-99.11727749792287,19.40546073600659],[-99.11340416612047,19.405725130261146],[-99.098450546441,19.408929804340445],[-99.0970556705529,19.408989244875173],[-99.07902182272443,19.40667223709191],[-99.07792333084188,19.40708820272677],[-99.07706476772363,19.40819893699215],[-99.07715126141495,19.408567656474062],[-99.06973868813184,19.419817309339592],[-99.06852480576482,19.42059490411839],[-99.05895777306834,19.42075071870282],[-99.05711347091528,19.420905598903488],[-99.05624477107274,19.42167090365406],[-99.05593440443147,19.422051504340047],[-99.05587234005068,19.421763967638952]],"type":"LineString"}},{"type":"Feature","properties":{},"geometry":{"coordinates":[[-99.13097001900125,19.398734631888956],[-99.13101891054048,19.397099363162326],[-99.13560607630943,19.377235566931446],[-99.14007200272333,19.356889266464123],[-99.14996005657146,19.357583965748205],[-99.15546983833974,19.357869387571483],[-99.17006887410899,19.358714212961274],[-99.17318784630231,19.36036285194548],[-99.17470139775612,19.36240992203173],[-99.17768649724616,19.36514567807312],[-99.17939080423271,19.363538825230975],[-99.17960584399303,19.36306439430078],[-99.17991540058226,19.36285856916939],[-99.18056973812568,19.36278789468909]],"type":"LineString"}},{"type":"Feature","properties":{},"geometry":{"coordinates":[[-99.18054296886787,19.362787892273403],[-99.18124907051107,19.36278214948723],[-99.18247257422078,19.362385896709725],[-99.18348300850145,19.36186904584362],[-99.18381779831563,19.361673789868362],[-99.18453350733955,19.36169676115925],[-99.18540111800293,19.361660271837707],[-99.18591913992871,19.36174067138623],[-99.18650624234502,19.361942073923203],[-99.18779670396907,19.36277478018617],[-99.18826540941929,19.362924092619636],[-99.18903238189365,19.362878150357886],[-99.19102710571951,19.363378409617084],[-99.19071650489805,19.367250507082602],[-99.19194429906017,19.369377237690586],[-99.19166251023628,19.371674835106788],[-99.19206506577382,19.37294704461131],[-99.19188391581545,19.37528256740734],[-99.19160731412263,19.37794773302916],[-99.19174126216431,19.383000946575294],[-99.19033695856554,19.386492076550766],[-99.18844494788961,19.393744776086862],[-99.18886610807084,19.395430183503464],[-99.18887359352006,19.395574079450995],[-99.18648257849061,19.395634159709843],[-99.18297603506072,19.396531810372124],[-99.18221499790715,19.396861485985937],[-99.17965002047896,19.39739853484808],[-99.1791201131271,19.397239014999656],[-99.1752580670172,19.39805533808773],[-99.17493674021858,19.398523260184334],[-99.17036487998429,19.399810039011328],[-99.16661606023354,19.400676737614035],[-99.1638418328952,19.401899692187257],[-99.16023395305547,19.4029205872677],[-99.15656992015445,19.403973090125135],[-99.14797458352626,19.403905006165374],[-99.13658709027304,19.403164970986964],[-99.13719802389727,19.39903601352009],[-99.13097462731737,19.39873603759618]],"type":"LineString"}},{"type":"Feature","properties":{},"geometry":{"coordinates":[[-99.05797772575944,19.400801762992415],[-99.01897582864719,19.3829505933886],[-99.00942329154644,19.377839371016307],[-98.99183326352511,19.367471085200137],[-98.99391326050039,19.35913721636271],[-98.99476066298497,19.35819236208431],[-98.97746812488747,19.341834102990774],[-98.97480594898416,19.33740210517651],[-98.96112529785825,19.32589747888001],[-98.9684406637484,19.325629221312838],[-98.96902816722691,19.32466349042339],[-98.97113180871328,19.32491386564635],[-98.9715517218225,19.325258202186006],[-98.97572967686668,19.32533796471516],[-98.9760677772746,19.32473404745609],[-98.97627305252239,19.324745442142046],[-98.97621267744965,19.324358022374724],[-98.97650247779944,19.324323838233397],[-98.97656285287253,19.32492775700875],[-98.97690910224131,19.325070232554737],[-98.97772077230184,19.3253802595719],[-98.9776782622306,19.324786559189164],[-98.97830316027607,19.324979110900728],[-98.97824364617632,19.32532409881712],[-98.978519961639,19.325368225126113],[-98.97863473883088,19.324830685643292],[-98.97891530530018,19.32476650170605],[-98.97897056839281,19.324220937223288],[-98.97947218723165,19.324204891181452],[-98.98017785441205,19.324321224949017],[-98.98029263160444,19.32462208775597],[-98.98049242893836,19.32484272012877],[-98.97956570938842,19.32581349902965],[-98.98005637591672,19.32608825781034],[-99.00432198364867,19.327399772200224],[-99.03867537100228,19.315835764777034],[-99.03952142526266,19.314697574082686],[-99.03958556608814,19.31462376035516],[-99.04049167671353,19.315412700706304],[-99.04174836585467,19.314348902822786],[-99.04181848155807,19.31443034214014],[-99.04364687495291,19.312211112058606],[-99.04477951323481,19.313081504041932],[-99.04498986034437,19.31285245396863],[-99.04518402690701,19.31331055379316],[-99.04585282284462,19.314109680414163],[-99.04628430409504,19.31449142742119],[-99.04662948909515,19.314908803128915],[-99.04677613790142,19.31454380898674],[-99.04888120580313,19.31188462890981],[-99.05039214319254,19.313033283078383],[-99.05227775870284,19.310759931965052],[-99.05380968133382,19.31184918067838],[-99.05989569028117,19.304434727381448],[-99.06345088975331,19.305619692791026],[-99.0647527077746,19.3016219681125],[-99.06362931121261,19.298709367173245],[-99.06277685171032,19.29759919773224],[-99.06259842995087,19.296857001436038],[-99.06202294545115,19.29450929644726],[-99.06156297306633,19.29408420347444],[-99.0616779661628,19.29250140077913],[-99.06904888288267,19.284955744852795],[-99.07233577351336,19.28792250291319],[-99.07497103196609,19.28970433527776],[-99.08324724175749,19.299928762361333],[-99.08618752907195,19.30353214214192],[-99.08682443705517,19.303923571285978],[-99.09452020320555,19.313417806885752],[-99.0986428223684,19.318339732113827],[-99.09880465902864,19.31889335736078],[-99.09852144487336,19.31916062405017],[-99.09868328153361,19.31980969847666],[-99.09878442944604,19.320325138097246],[-99.09878442944604,19.320687853892466],[-99.09912833234914,19.32078330528293],[-99.10082761728253,19.323074121947386],[-99.10348478086287,19.324537834766247],[-99.10447603040693,19.325244157099007],[-99.10751046778746,19.328393935733857],[-99.10893236912948,19.33073067935176],[-99.10945833827542,19.331341529740996],[-99.11002476658655,19.332735023641263],[-99.11061142448028,19.333288600109483],[-99.11180496984979,19.334033062057074],[-99.11350188109435,19.337007367142462],[-99.11394518040187,19.339041772633223],[-99.11426757989796,19.341000101634407],[-99.11569822766225,19.3436048329294],[-99.11895724547338,19.349135682193108],[-99.12034744843162,19.3509457910357],[-99.12148741485737,19.353988827303994],[-99.12182106356721,19.35755645270524],[-99.13107981526798,19.358658203601266],[-99.13191393704277,19.35766138168229],[-99.13291488316764,19.356717018398257],[-99.13544049454953,19.356447383741738],[-99.13990287806128,19.356870341553744],[-99.13548280414932,19.377200746829942],[-99.13402841151236,19.377376236154632],[-99.12964832205054,19.376993350103007],[-99.12247782810478,19.375605380623483],[-99.12241120350052,19.382402040984573],[-99.11661054448315,19.38205107296774],[-99.09587267194132,19.379595950909547],[-99.08873422177496,19.390156038114498],[-99.08453671822454,19.389337755936168],[-99.08394906772759,19.392584464231277],[-99.06673930317109,19.383345693377407],[-99.06077884812936,19.382448184844634],[-99.0579760307661,19.400822920013795]],"type":"LineString"}},{"type":"Feature","properties":{},"geometry":{"coordinates":[[-98.96105722704027,19.325874491147687],[-98.95792207228634,19.323249999757394],[-98.96301254077659,19.31665174290427],[-98.96440470309888,19.307870146311004],[-98.96478034376136,19.306779333573573],[-98.96532935703706,19.30632255357854],[-98.96625401097563,19.305968036881765],[-98.9672581273619,19.305974854517785],[-98.97648403666773,19.253065428186304],[-98.96599964081072,19.249978646089133],[-98.96848564813584,19.23213594025843],[-98.94035611290617,19.223205932234833],[-98.94265295220487,19.2155512552074],[-98.95092157367948,19.218153885397456],[-98.95316436970037,19.215500222831523],[-98.95370480247671,19.215576771389735],[-98.95392097558708,19.214709218970768],[-98.95748783190956,19.215091963249975],[-98.95994680104081,19.214505088324557],[-98.95983871448563,19.213892694864953],[-98.96267598656026,19.21422440827176],[-98.96356770064108,19.213025133558858],[-98.9643783498052,19.21330581565904],[-98.9670805409395,19.21169826372845],[-98.96772906027103,19.210856207758084],[-98.96853970943513,19.21044793664376],[-98.96999870778615,19.211226847845694],[-98.97186320086406,19.212170968785486],[-98.97280895822227,19.21308956773963],[-98.9735925857475,19.214110227224282],[-98.97494366768797,19.214620554590752],[-98.9783909243409,19.21518620242469],[-98.99068524011227,19.225982349319906],[-98.99142550706814,19.225497722366867],[-98.99145511774647,19.224761459453163],[-98.99330085002447,19.224882616868626],[-98.99373514064855,19.22752941758806],[-98.9951959341086,19.227538737235392],[-98.99577236660681,19.225040817895888]],"type":"LineString"}},{"type":"Feature","properties":{},"geometry":{"coordinates":[[-98.99577132297905,19.22504707501193],[-98.9963640852817,19.225290583045947],[-98.99609079877249,19.22605607375391],[-98.99627170674576,19.226085149178914],[-98.99635253796762,19.226295945862333],[-98.99670665572843,19.22640134415576],[-98.99704072536377,19.226487315343846],[-98.99742178683903,19.226494584181637],[-98.99738371022525,19.227527149573305],[-98.99871550083594,19.22775248197037],[-98.9989450464317,19.22737128552569],[-98.99955320514968,19.227542102211274],[-98.99983803897975,19.226778877348906],[-99.0034199034493,19.227761767885582],[-99.00361715711269,19.227074313208476],[-99.00019668369808,19.22635660445023],[-99.00086500887672,19.2264608792147],[-99.02966189056825,19.223444586747732],[-99.015579896043,19.241076295762838],[-99.01501725245254,19.241837213754508],[-99.01478228878283,19.242754812397052],[-99.01421623994992,19.24380349029086],[-99.0138637944457,19.245527744165514],[-99.01271259166376,19.24514739939349],[-99.0123205848158,19.24648189026246],[-99.0112124116112,19.246072647550008],[-99.01109933261023,19.24614026167528],[-99.01108802466473,19.246467655820325],[-99.01093330871383,19.2469258950845],[-99.01058988697316,19.247019210657967],[-99.0097739213186,19.248251972307756],[-99.00968353768434,19.249000258761157],[-99.00898827895865,19.25029334222006],[-99.00868931770637,19.25070686422093]],"type":"LineString"}},{"type":"Feature","properties":{},"geometry":{"coordinates":[[-99.00870593966062,19.25069973154612],[-99.00864271621401,19.250777585841377],[-99.00834309205472,19.250678970395683],[-99.00818365890716,19.25072308790422],[-99.00794841717293,19.25053946110846],[-99.00767353262316,19.2510247527525],[-99.00759126343169,19.250933602050708],[-99.0070836135021,19.251637501021435],[-99.0093348439996,19.254159441570778],[-99.01063335172648,19.25526195509886],[-99.01121318851018,19.255670577112355],[-99.01136018938494,19.2556320279092],[-99.01182569215504,19.256187135558662],[-99.01177669186332,19.256742241329277],[-99.01299853956442,19.25813074512355],[-99.01395404525006,19.258639586121234],[-99.01600734151243,19.259481372532747],[-99.01626969146427,19.25987979350589],[-99.01704533483714,19.26005208336622],[-99.01810614116349,19.260450502952736],[-99.01969164739286,19.261053514538986],[-99.02032505090628,19.260923619558554],[-99.0213105711442,19.261047758910962],[-99.02251558948177,19.26136226895352],[-99.0237336944163,19.26157134515384],[-99.02517327297558,19.262002563973553],[-99.0255879251863,19.26210699235405],[-99.02585092511544,19.261773778122958],[-99.02630771446577,19.261656172939027],[-99.02685447747635,19.261499365895617],[-99.02741508258808,19.26174764364478],[-99.02771268777113,19.261584303062406],[-99.02950639665623,19.26239621727501],[-99.03032405788325,19.263063439966004],[-99.03055965518585,19.264332463865514],[-99.03110014001734,19.26507817388361],[-99.03266616914651,19.26679198689598],[-99.03388573165421,19.267890911001757],[-99.03529931546979,19.26982709269032],[-99.0353686087939,19.27024572356126],[-99.03634143585684,19.271033986810465],[-99.0373196959394,19.271611139630622],[-99.03893768144184,19.27207154137045],[-99.0413040911733,19.273541140085555],[-99.04756546200481,19.27548633166049],[-99.05059612573005,19.277367376165216],[-99.05462317205027,19.279326774558157],[-99.05742549809801,19.27940515000546],[-99.06462851393842,19.28205029939062],[-99.06892541315146,19.284871739527887],[-99.06153557557455,19.29241494905017],[-99.0614733023885,19.29435458805108],[-99.06209604150985,19.29466806084561],[-99.06271878063176,19.297646022448248],[-99.06352834148959,19.29878233561584],[-99.06462851393792,19.301701448785778],[-99.06334151975308,19.305502095256287],[-99.05997872849639,19.304307056141226],[-99.05379284783648,19.311751424107158],[-99.05225675800276,19.310536840528528],[-99.0503885406376,19.31284845958416],[-99.04885245080447,19.311751424107158],[-99.04661058996628,19.314650716171997],[-99.04594633490338,19.31396507741998],[-99.04528207983986,19.313318615391594],[-99.04509525851401,19.312750510051373],[-99.04472161504154,19.312994251233064],[-99.04360068462302,19.312073526345998],[-99.04181549914043,19.31432635465643],[-99.04173246725786,19.31413045777424],[-99.04048698901461,19.315286245982577],[-99.03951136439045,19.314365534004708],[-99.0386538428684,19.315750927396238],[-99.00428825346843,19.32731416032388],[-98.98012213835953,19.325998987706924],[-98.97974849488651,19.325783516515074],[-98.98059957168593,19.324882452085916],[-98.98024668618369,19.32427521021188],[-98.97937485141348,19.324079325255354],[-98.97891817605728,19.324236033239146],[-98.97886061655038,19.32468162102215],[-98.97849496450607,19.324800232141882],[-98.9784606846275,19.325317806928126],[-98.97830071185784,19.325317806928126],[-98.97835784498986,19.324875711900503],[-98.9774894214094,19.324724752344636],[-98.97762198575506,19.325280233704703],[-98.9766392958875,19.324816572929947],[-98.97655930950934,19.32420195080215],[-98.97610224445444,19.324320562270074],[-98.97620508409209,19.324697961821215],[-98.9758851385534,19.324676396156008],[-98.97572516578437,19.32522631972884],[-98.9715887270394,19.32518318853502],[-98.97118454424859,19.324856743798236],[-98.96897920535956,19.32458717304155],[-98.96839644741488,19.32557919123377],[-98.96105034509685,19.32588422169151]],"type":"LineString"}},{"type":"Feature","properties":{},"geometry":{"coordinates":[[-99.25574998965665,19.40368289987451],[-99.25535707072189,19.402665317340222],[-99.2554064984322,19.402114610897144],[-99.2552335014464,19.401526023113774],[-99.25541929907124,19.40022391957237],[-99.25523085595141,19.399204076034394],[-99.25571894644757,19.397264630078254],[-99.25813232465246,19.395317266901728],[-99.25951142809664,19.39455166953286],[-99.25968133585056,19.394236964673084],[-99.25937550203993,19.39312373388097],[-99.2591098280976,19.392672069975333],[-99.2587947264453,19.39253219960868],[-99.25775365675437,19.39282650966493],[-99.25663535481169,19.392928498301174],[-99.25594728780662,19.393386805129907],[-99.25497726899455,19.393634490855447],[-99.25466525657416,19.393771446329794],[-99.25438722570462,19.39398707812005],[-99.25429763798,19.394220193247676],[-99.2543995826322,19.39438337363812],[-99.25485678895099,19.39482920494271],[-99.25490499217611,19.39512305670641],[-99.25478451213253,19.395227957822556],[-99.25461460437862,19.395067692200826],[-99.2545281058859,19.394974446675107],[-99.25386392103044,19.3946160336898],[-99.25279806047367,19.393537767495886],[-99.25176316779216,19.39338624206583],[-99.2511213655537,19.39364122053948],[-99.25046644835682,19.393754864469017],[-99.24981482741411,19.393614088865917],[-99.24891883317466,19.393499043060814],[-99.24801591305479,19.39421004910055],[-99.24728067586342,19.394367401635918],[-99.24669990023925,19.393921569066478],[-99.24674932721561,19.392833734067096],[-99.24770160988831,19.392017939521423],[-99.24842449014943,19.390432728622528],[-99.24828959811438,19.38772834934595],[-99.24740607779506,19.386183893814263],[-99.24857331004436,19.385284282222017],[-99.24961908303887,19.384547412771795],[-99.25074548311449,19.383688108275507],[-99.25690480345509,19.379647343934465]],"type":"LineString"}},{"type":"Feature","properties":{},"geometry":{"coordinates":[[-99.2569034701663,19.379649171897398],[-99.26100866550986,19.376099675074272],[-99.26287292476377,19.375085035035],[-99.2664449030153,19.37443130266915],[-99.26695020591029,19.37411092895327],[-99.26736599173846,19.37344530653995],[-99.26793927224249,19.373409648101017],[-99.26898284675069,19.373620375706125],[-99.2697703199103,19.373358880724197],[-99.27016720638257,19.37266948284963],[-99.27002861110675,19.371986025181045],[-99.26982701797762,19.371510574678155],[-99.26840326582827,19.371837447323173],[-99.26823947141128,19.37110644093478],[-99.26826467055245,19.37041703353094],[-99.26842216518418,19.37004855596426],[-99.26859225938684,19.369644418320107],[-99.26914034070587,19.369038209974846],[-99.26846626368125,19.368770764399585],[-99.26801267914131,19.368782650878927],[-99.26760949288374,19.369020380283402],[-99.26723150575091,19.36934725762653],[-99.26673382271426,19.370113931055343],[-99.26633063641736,19.370963805135474],[-99.26622354006768,19.37152840434807],[-99.26560616111072,19.372015741043228],[-99.26519667506787,19.371932537320845],[-99.26673000114081,19.367783233733178],[-99.26679677491026,19.367129807688073],[-99.26646665289168,19.364344607729336],[-99.26669302227606,19.363517047133172],[-99.26488263866958,19.36276831122501],[-99.26266610511603,19.36201193148939],[-99.26115697792383,19.360926299850732],[-99.25918365606572,19.35164785793627],[-99.2595250215,19.3500475762595],[-99.25899934740072,19.349901699793946],[-99.2583345241938,19.350032988565005],[-99.2581335311556,19.349682884796053],[-99.2595095604157,19.348545042360143],[-99.26029807156463,19.34823869880988],[-99.26111750471951,19.34778647632774],[-99.26034445457356,19.34812199635337],[-99.25980331947129,19.348005293814282],[-99.25909211333678,19.348326225597404],[-99.25903026932488,19.348049057276512],[-99.25978785846833,19.3476989492506],[-99.26328204755376,19.346167218632914],[-99.26413240271455,19.34520440865127],[-99.26476630383422,19.34507311594149],[-99.2650600628898,19.344577120305146],[-99.26553935398061,19.34435829822175],[-99.26587949605441,19.34408112305536],[-99.26653097963627,19.343998628584345],[-99.26853969265471,19.341523660816208],[-99.26912721076587,19.341552837617755],[-99.26925089912329,19.34121730415343],[-99.27065531651222,19.341169375357836],[-99.28107603248144,19.337215861952714],[-99.28104379638162,19.336944243115653],[-99.28051994183473,19.336669630287517],[-99.28013578183376,19.336384032455598],[-99.28003101085253,19.335384436039647],[-99.28037227973707,19.33513237488806],[-99.28107075246615,19.33520926725076],[-99.28258411004748,19.33580243571457],[-99.28337853004635,19.336396931312947],[-99.28449608641297,19.336638591030223],[-99.28511307065705,19.336320039510156],[-99.28752840065638,19.331025818817736],[-99.28744018976315,19.330453278182034],[-99.28670679339747,19.32975024047566],[-99.28814292395086,19.330319773264634],[-99.28836067175088,19.3312238496204],[-99.2876638787907,19.333216909361937],[-99.28785985181065,19.333566205987026],[-99.28897036559017,19.332888158914784],[-99.2902115280501,19.33085400080718],[-99.29062524887004,19.330073206117802],[-99.29143091572931,19.32888145965893],[-99.2913873661698,19.32820339313794],[-99.29075589754981,19.326785608589788],[-99.2909300957897,19.326210272220422],[-99.29173576264958,19.324854114188312],[-99.29151904564756,19.322897200331894],[-99.29134484738788,19.32238349499461],[-99.290539180528,19.322157464144453],[-99.29051740574793,19.321746498160252],[-99.29082225268932,19.321232789252548],[-99.29147588140715,19.321162706534196],[-99.29293479166645,19.320772286497302],[-99.29352271072632,19.320073637787715],[-99.2938726320552,19.31861978285987],[-99.29463474935497,19.316914230352893],[-99.29509201973504,19.316996426062886],[-99.29523591446261,19.317477083131323],[-99.29552189716912,19.31755419222931],[-99.29583511632357,19.31743852856944],[-99.29625728127127,19.31705298244364],[-99.29644793640867,19.31714294328785],[-99.29655688220153,19.317502786168035],[-99.29642069996035,19.318261023930233],[-99.29681562845974,19.31873652717283],[-99.29744206676902,19.318993555376693],[-99.29812297797453,19.31917347487868],[-99.29864047049094,19.31970038085285],[-99.29896730786953,19.321152576329098],[-99.29951203683387,19.321396749522492],[-99.30002952935027,19.322257778397883],[-99.3003427485047,19.322322034102356],[-99.30061511298706,19.32212926691375],[-99.30053340364252,19.320330095520106],[-99.30106451438269,19.319713232196122],[-99.30111898727931,19.318710824330154],[-99.30147306110624,19.318530904318877],[-99.3018679896056,19.318492350004817],[-99.3018679896056,19.318261023930233],[-99.3013777335375,19.317785519304252],[-99.30114622372763,19.316834505902378],[-99.30071044055578,19.316037706630382],[-99.30058787942518,19.31524090495148],[-99.30005676868461,19.313955730386724],[-99.30022018737411,19.313017546574528],[-99.30045169718399,19.312477767146646],[-99.30101004437249,19.312233580629638],[-99.30128240885483,19.31152672286747],[-99.30125517240654,19.30944468770089],[-99.30168289787532,19.309388047014693],[-99.30312642963129,19.310994558523333],[-99.30330346654493,19.311020262579262],[-99.3036166856994,19.31080177797577],[-99.30440654269815,19.309233821079772],[-99.3050756845657,19.30907014386581],[-99.30590639623654,19.307168010136408],[-99.3064375069771,19.307142305474926],[-99.30698223594143,19.30790059128647],[-99.30747249200952,19.307733511663983],[-99.30748611023368,19.306666768510823],[-99.30788103873307,19.305715690434624],[-99.30872536862807,19.305150181930074],[-99.3093518098845,19.305137333310995],[-99.30947437390114,19.305677136968214],[-99.30959693789825,19.306679624753556],[-99.31004633929425,19.30742506040137],[-99.31031870377622,19.307566435744903],[-99.31060468648276,19.30719371866718],[-99.31072725049978,19.30682100074081],[-99.31101323320628,19.306653920015336],[-99.31129921591241,19.30683385309726],[-99.31151710749815,19.306808148383283],[-99.31181670842882,19.306628215273122],[-99.31212992758326,19.305959890558768],[-99.31233420094844,19.305175890774734],[-99.31215716403575,19.30439077247526],[-99.31225249160445,19.304287952060108],[-99.31252485608681,19.304159426449274],[-99.3130423486057,19.304108016178162],[-99.31345089532924,19.30374814381902],[-99.31388667850071,19.303169775868696],[-99.31400924251774,19.302668521990554],[-99.31398200606942,19.301434659747045],[-99.31480014037784,19.301131578603744],[-99.31522224070854,19.300589786430976],[-99.3154417329312,19.29963367819576],[-99.31569370140959,19.298824639228727],[-99.31630152594893,19.298378451269755],[-99.31676596211668,19.297607133160795],[-99.31614125352115,19.296754330098324],[-99.3153271986043,19.296117663766736],[-99.31560657472524,19.294910804162214],[-99.31582748055182,19.294441231477364],[-99.31593793579218,19.29391939220612],[-99.31621409367607,19.29329320770495],[-99.31621414697898,19.29214497057555],[-99.31632479819088,19.29130988837298],[-99.3168142899845,19.29006572319456],[-99.31684838216644,19.28858367311358],[-99.31650730390182,19.28718196086774],[-99.31617483186679,19.285491061882297],[-99.31507460139531,19.284846412649642],[-99.31500206123029,19.283582646254303],[-99.3151830714078,19.28229476818811],[-99.3156157995136,19.281249487522842],[-99.31631041075103,19.27830427560575],[-99.31598590482665,19.276902726904282],[-99.3153251573232,19.275223501473548],[-99.31448366436958,19.27426566373545],[-99.3145746313653,19.27338775582008],[-99.31443334108468,19.27107658932296]],"type":"LineString"}},{"type":"Feature","properties":{},"geometry":{"coordinates":[[-99.31443434329695,19.271080465240345],[-99.31452056929331,19.26996599485149],[-99.31452836996984,19.268844421483664]],"type":"LineString"}},{"type":"Feature","properties":{},"geometry":{"coordinates":[[-99.31452927553585,19.268849853303564],[-99.31429928607987,19.268063747572796],[-99.31425996696547,19.267571951152362],[-99.31439758386536,19.266829614137094],[-99.31431894559303,19.266180066443084],[-99.31434764637547,19.265314114646785],[-99.31636560345838,19.2607405467936],[-99.31505305216514,19.24507248818496],[-99.31542325348477,19.229241327215775],[-99.32130127045697,19.23253524560259],[-99.3267250167937,19.23252269414928],[-99.33092733255015,19.238122716946066],[-99.34222029358745,19.24101875145024],[-99.34209916547645,19.246987630214065],[-99.33971828451506,19.259860295968465],[-99.3375246000091,19.26413839963331],[-99.33928470213638,19.267884277332925],[-99.34073902503293,19.267945970286945],[-99.34302041495935,19.268525784509038],[-99.34498954295472,19.269616995910738],[-99.34614170362866,19.271212215100547],[-99.3463247306387,19.272138602205672],[-99.34831549115182,19.274037448192175],[-99.36185027561989,19.275921766865665],[-99.36496525032736,19.277826770306916],[-99.35365075689619,19.29192480543206],[-99.3545027171487,19.29331206472102],[-99.3534936408349,19.2933534736771],[-99.35272586537887,19.29376756266109],[-99.35211164500343,19.294098833055273],[-99.3515078235713,19.294140241791],[-99.35128845915519,19.294927006181354],[-99.35297756515834,19.295982920868397],[-99.35346016687325,19.297245868701083],[-99.35014776419199,19.296811084481405],[-99.35633516414032,19.302042161530082],[-99.35651065567306,19.306783165934675],[-99.33379123428465,19.330572135825236],[-99.33232149269699,19.333304481666175],[-99.33161952656597,19.33653355872157],[-99.33156374578992,19.338198528398564],[-99.33112501697221,19.339129971565626],[-99.3312106349672,19.339823686720734],[-99.33064028748561,19.340216959458957],[-99.33020155865341,19.341231184780554],[-99.32980670246192,19.34143816888985],[-99.32839126126892,19.34516485599474],[-99.32892970967893,19.345640938921747],[-99.3285269073709,19.34645575639675],[-99.32832947939647,19.34705599001512],[-99.32848303464299,19.34784249968999],[-99.3286804625966,19.34842203070997],[-99.3282417337644,19.349498297142375],[-99.32887789057101,19.350533162016703],[-99.32861465327157,19.351423140559348],[-99.328812081246,19.35210614405463],[-99.3284610981805,19.353078901671694],[-99.32751783119171,19.353679110925654],[-99.32756170407505,19.354010259912997],[-99.32631132690348,19.353679110925654],[-99.32361315070548,19.35810818122917],[-99.32231890064024,19.358625587189863],[-99.32133176074164,19.358377232560088],[-99.32052049157481,19.358061079919707],[-99.31995014403537,19.357626457539595],[-99.31903279038545,19.357507916420104],[-99.31807371709107,19.35805536832156],[-99.32081577229135,19.360621686525946],[-99.3196312044448,19.363601876334187],[-99.31796789769594,19.364107353592573],[-99.31766078751315,19.365452556142813],[-99.3169807578238,19.366052719854352],[-99.31531358826169,19.365887157671494],[-99.31437032138466,19.36739790639072],[-99.31345069284517,19.369837696730727],[-99.31303390045463,19.370396454878048],[-99.31066476476215,19.370417149587524],[-99.3092608324995,19.37161743823816],[-99.30794464600353,19.371555354559064],[-99.30618973028048,19.373459243401157],[-99.3050270988756,19.37685307682672],[-99.3034476750808,19.377825686786352],[-99.30138564956987,19.37710140332564],[-99.30202180637649,19.375507968376752],[-99.30153920559106,19.37484575669069],[-99.30107854031773,19.371832298415427],[-99.30090304878499,19.37100451517655],[-99.30099079455105,19.37021811720507],[-99.30134177761718,19.36953518957253],[-99.29899091995718,19.3674104852377],[-99.29831089026783,19.36900399936863],[-99.29745536904511,19.36929372753785],[-99.29673146647244,19.369231642973517],[-99.29559077150921,19.36902469425496],[-99.29475718672818,19.36972831882359],[-99.29396747483045,19.37008012996874],[-99.29320470525829,19.371528073470486],[-99.2931827688166,19.371921269769913],[-99.29195432808672,19.373142241703974],[-99.29151559853943,19.37343196309665],[-99.2910286717629,19.373496086138715],[-99.29105060820459,19.37399274899262],[-99.29076543446409,19.374385939344748],[-99.29067768815818,19.375027458858312],[-99.2885911208722,19.375152604514355],[-99.28756010811672,19.37666326729918],[-99.28584906567191,19.376477021959943],[-99.28554195548975,19.37784281617398],[-99.2850593537742,19.377904897457327],[-99.28494967156647,19.378856807502075],[-99.28424770543484,19.379684550846136],[-99.28372123083659,19.379829405499322],[-99.28277796384779,19.38142279817569],[-99.28183469685901,19.381505571395635],[-99.27979929009058,19.38236445972302],[-99.27900957819287,19.38329565063387],[-99.27613590434318,19.385427023122546],[-99.2760700950188,19.385116630806436],[-99.27308673864945,19.387558367922367],[-99.2726936156352,19.389440379588436],[-99.27192583994716,19.389812840553475],[-99.27034641600378,19.38993699406913],[-99.26957864054773,19.39051637542636],[-99.26946895833939,19.3913233674527],[-99.26889861085778,19.391757899963707],[-99.26819664472677,19.39208897157421],[-99.26804308962225,19.393371867705397],[-99.26654524129675,19.39221721747839],[-99.2657994022824,19.39310696839462],[-99.2650096903847,19.39325181110594],[-99.26496581750135,19.393665646715803],[-99.26463677087752,19.393789797193946],[-99.26446127934477,19.394224323120454],[-99.2616972877028,19.39581757492384],[-99.26163147837842,19.396521083742996],[-99.26125855887122,19.39683145431391],[-99.26141211396231,19.397100441664207],[-99.26117081310456,19.397452193681005],[-99.26143405040399,19.39859020970249],[-99.2609953215718,19.399852363616517],[-99.26013980034907,19.40024549152473],[-99.25981527267896,19.400482124523975],[-99.2591871003474,19.40151631111945],[-99.25886730352438,19.403713935806465],[-99.25817060330189,19.404683466672054],[-99.25773659332798,19.404823509540776],[-99.25770232938251,19.40446801586741],[-99.25803354756069,19.40400479563675],[-99.25828352635337,19.402858030792473],[-99.25821499849516,19.402610259546563],[-99.25738556030302,19.401076723199424],[-99.25678023060178,19.400688902948474],[-99.25600358117387,19.40259567694737],[-99.25603784511934,19.403155854891068],[-99.2559350532836,19.40339285267224],[-99.25585510407751,19.40354366926104],[-99.25585153625293,19.403584123358115],[-99.25574980239878,19.403682135080885]],"type":"LineString"}},{"type":"Feature","properties":{},"geometry":{"coordinates":[[-99.17168046942639,19.359380705887844],[-99.1694621714607,19.35836042825521],[-99.13537959933882,19.356280282889088],[-99.13263445564039,19.356594219163696],[-99.13105391835958,19.358451663088772],[-99.12198662553838,19.357431379607476],[-99.12167767890651,19.353793981212064],[-99.12054080121318,19.350916160010158],[-99.1191543650022,19.349137117876225],[-99.11441275315984,19.34094804146757],[-99.11375774261718,19.3372844255519],[-99.1120129324106,19.333866267282943],[-99.11023829406041,19.332767334649773],[-99.10960053347912,19.331171252409348],[-99.10863002813129,19.330203129502365],[-99.10760406533481,19.32839769577879],[-99.10433207587639,19.324891434151567],[-99.10075507045165,19.32292894144041],[-99.09922999061912,19.320704754541367],[-99.10089511645678,19.3000668382807],[-99.1091099496047,19.29949555150172],[-99.12232807672123,19.303005596923057],[-99.13465295746748,19.30822153026817],[-99.1426756513073,19.299549948950485],[-99.14733748691687,19.30126383775388],[-99.15164697612356,19.29793836662371],[-99.156769574555,19.296838387845852],[-99.15877524801483,19.299447627796994],[-99.16029305495776,19.30047084779288],[-99.1618921729864,19.301135937358268],[-99.17839821038585,19.303489295233092],[-99.18146092796641,19.303386975409822],[-99.19452490915117,19.30198007134416],[-99.1969642417377,19.302287033263454],[-99.20138214408864,19.304793867374485],[-99.20573603157618,19.305664740605593],[-99.20559746773043,19.3066735492406],[-99.20528025143089,19.306231339221952],[-99.2002428663294,19.311255922791304],[-99.2013909644759,19.31153613847053],[-99.19464094286813,19.322314739857134],[-99.19492432474388,19.322943960103274],[-99.19468678719619,19.32985531236571],[-99.19470658199188,19.330191532855125],[-99.1963297552332,19.332769200280197],[-99.1963297606667,19.333553700537934],[-99.19686422014858,19.333777842531703],[-99.20007097703983,19.333329558235462],[-99.19850718818557,19.33521607967367],[-99.1980321130902,19.33542154108798],[-99.19142065135198,19.3369531543957],[-99.1908268074836,19.336635625987995],[-99.19072783350516,19.337121257420975],[-99.19060906473162,19.337476141015884],[-99.19021316881899,19.337905735913722],[-99.19021444701607,19.338708930626822],[-99.18920382558004,19.339715504867456],[-99.18840842899439,19.34029825560991],[-99.1876931376231,19.340959296406197],[-99.1869180565305,19.341345663697098],[-99.1864573951266,19.342163241468256],[-99.18440055262604,19.34361656974633],[-99.18399107582233,19.34367176423126],[-99.18355283305802,19.344483774218276],[-99.18305655208853,19.346287953889032],[-99.18290572433818,19.346480767861777],[-99.18230726785089,19.346613899772294],[-99.18201047236488,19.347131335636618],[-99.18185477637448,19.347333328021136],[-99.18083302143718,19.347057883798072],[-99.18068705644622,19.347269057744796],[-99.18010702735046,19.349558565338626],[-99.1791701224086,19.350456358712748],[-99.17734022994418,19.35198950213025],[-99.17698889059112,19.352749162449285],[-99.17555425489903,19.353923175983795],[-99.17278745749317,19.357072252910072],[-99.17175603343252,19.359417176074885],[-99.17167561310136,19.359378492946647]],"type":"LineString"}},{"type":"Feature","properties":{},"geometry":{"coordinates":[[-99.09917970015161,19.320720066995477],[-99.0988350780378,19.320657792064296],[-99.09881308088153,19.320194189054533],[-99.09858577693441,19.31917702560385],[-99.0988644075104,19.31887256728612],[-99.09869348236194,19.318284871417177],[-99.08682063157148,19.30383780351326],[-99.08617735799828,19.303453543686715],[-99.07503080477765,19.28960126345966],[-99.06900548953412,19.284805081336827],[-99.0645615083194,19.281912533002156],[-99.05734862785201,19.27932673803869],[-99.05461917597513,19.27922442670409],[-99.05065936085028,19.277309470974316],[-99.04757632422957,19.275362853247458],[-99.04137935197096,19.273435685912133],[-99.03887642619691,19.271982457236618],[-99.03730912998859,19.27155418939823],[-99.03632956985805,19.271009119619762],[-99.03547374359316,19.270288846068595],[-99.03537184038909,19.269806707140873],[-99.03383547763146,19.267752930744336],[-99.03268718731336,19.26673107348398],[-99.03114051342365,19.265008206761877],[-99.03066971547632,19.264302003562406],[-99.0303603806985,19.262978200958628],[-99.02966953289685,19.2623746991313],[-99.02785408309397,19.26150954809134],[-99.02734883629003,19.26168475944327],[-99.0268126560082,19.26142194234626],[-99.02582278471834,19.26173342923005],[-99.02557531689573,19.262025447646067],[-99.0237564149663,19.261511469792794],[-99.02250705047189,19.261330088859893],[-99.02125210956805,19.26100131255302],[-99.02030080165706,19.26088629016347],[-99.01967753095624,19.261019008298234],[-99.01702795458793,19.260035146786777],[-99.01627815524883,19.25985376422031],[-99.01602404404531,19.259454942305183],[-99.0139482488184,19.258604414034963],[-99.01302505838214,19.25810892515166],[-99.01181772220633,19.256735477887133],[-99.01185029629592,19.25615516564571],[-99.01137698546334,19.255615428551252],[-99.01122233934922,19.255646397120188],[-99.0093669443638,19.254134518411433],[-99.00712186091121,19.251607976674592],[-99.00758192193103,19.250968298450275],[-99.00768501933992,19.251056782569876],[-99.00796150784646,19.250578967758045],[-99.0081817614019,19.250742663730236],[-99.00834578000726,19.250711694234525],[-99.00868318970977,19.25082229954957],[-99.00901694758005,19.250285686629283],[-99.00972457070623,19.248989383417154],[-99.00980423688624,19.24823283312338],[-99.01060089689655,19.247025319712137],[-99.01095705158258,19.246927984786424],[-99.01111638394205,19.24644573362309],[-99.01112107018794,19.246153727642465],[-99.0112101088597,19.246091786912885],[-99.01231802181577,19.246503513490268],[-99.01273363685704,19.245186131481177],[-99.01387239460283,19.245544504498184],[-99.01427737862015,19.24379990541246],[-99.01482389524023,19.242806163462262],[-99.0150769121936,19.241821970793126],[-99.0297204913017,19.223443015077848],[-99.09141231938477,19.210870657787808],[-99.09346550285773,19.210870657787808],[-99.09427067284673,19.211478923269965],[-99.09459274084233,19.211421898476402],[-99.09489467958812,19.210927682771498],[-99.09507584283573,19.209483043734735],[-99.0957401080773,19.20853261639415],[-99.09692773381128,19.208608650782693],[-99.09775303305008,19.208456581969344],[-99.09835691054226,19.20819046120677],[-99.09914195152814,19.20817145246052],[-99.09996373729457,19.20730044113958],[-99.10003560122391,19.20654489159803],[-99.10012756130469,19.206118168079428],[-99.10088767227745,19.205809466933857],[-99.10173482539922,19.20481564207823],[-99.10209528948413,19.20092703068306],[-99.10230165474968,19.20052878615884],[-99.10462550708577,19.199147632788822],[-99.10487674005878,19.19862228850316],[-99.10458065076504,19.198427400275975],[-99.1044729819311,19.1983596130121],[-99.10450887154258,19.19800372941944],[-99.10512796733869,19.19807151682994],[-99.13006821390603,19.146799902643238]],"type":"LineString"}},{"type":"Feature","properties":{},"geometry":{"coordinates":[[-99.09918042531439,19.32072704999041],[-99.10082311436543,19.29996574018122],[-99.1011462416058,19.29541411693353],[-99.1250229665479,19.285166628558557],[-99.13523524680559,19.282358545072526],[-99.13754729234007,19.282004048171842],[-99.1408354249888,19.282492025923304]],"type":"LineString"}},{"type":"Feature","properties":{},"geometry":{"coordinates":[[-99.14082395095681,19.28251120466419],[-99.14205507089905,19.273960531830866],[-99.14111959164025,19.273689497489002],[-99.14218156071858,19.270694957450218],[-99.14253352321194,19.270694957450218],[-99.14301515609745,19.2702228234147],[-99.14325597253993,19.269654512123125],[-99.1434134294448,19.269435930332605],[-99.14394193292756,19.269555395427716],[-99.14462733357246,19.268287616216213],[-99.14489593652767,19.267491970460767],[-99.14384004904812,19.267299615962727],[-99.14323800794084,19.267264642393158],[-99.1433289542694,19.266476839473214],[-99.14237201204477,19.26673035455171],[-99.14224835983785,19.266689500172774],[-99.14249566447732,19.264290746530833],[-99.14234728181404,19.264144835810285],[-99.14249566483193,19.263817995129557],[-99.142446203949,19.26326353212744],[-99.14239674306644,19.26315263930161],[-99.14232255174207,19.263035909930906],[-99.14223599519731,19.262965872268182],[-99.1420505168871,19.261897794207798],[-99.1420937951593,19.26139001695246],[-99.14227927346988,19.260993132485353],[-99.1422443714736,19.26007600704075],[-99.14191051051496,19.259661609621844],[-99.14161955388805,19.259158944024108],[-99.14147735384873,19.25900719210729],[-99.14107969038042,19.258808986317774],[-99.14070423475934,19.258474917563944],[-99.14012925199722,19.257914599841143],[-99.14002414762138,19.257611093608205],[-99.14012925199722,19.257424320262857],[-99.14068568691168,19.25704493622942],[-99.14069637910256,19.256779607318194],[-99.14060363994713,19.25647284337336],[-99.13996064847136,19.256245211750397],[-99.13960874634681,19.255535061572814],[-99.13952869715685,19.25484412504261],[-99.13947151917341,19.25450805842914],[-99.14011275805734,19.2539586667812],[-99.14028429205804,19.25327851964343],[-99.14024998525777,19.253073395350455],[-99.14042151925848,19.25250120517535],[-99.14057018205901,19.252047770034494],[-99.14071884486236,19.25160512974128],[-99.14081032966308,19.251259653575204],[-99.1416451284671,19.25105452675659],[-99.14187384046828,19.250752234136726],[-99.14204537452095,19.250503921844825],[-99.14231982892183,19.25033118269262],[-99.14235143558034,19.249216958384366],[-99.1417681393591,19.248734088206177],[-99.14086073462735,19.248256968863046]],"type":"LineString"}},{"type":"Feature","properties":{},"geometry":{"coordinates":[[-99.14087379779068,19.248278227249287],[-99.14002445952686,19.24750312789159],[-99.13948586842768,19.246453868369898],[-99.13912681128888,19.246009950377555],[-99.13885324120626,19.245888881212508],[-99.1403407785288,19.243612764275852],[-99.14106744905908,19.243580478696458],[-99.14161458922385,19.2437419065009],[-99.14176847239511,19.243556264511938],[-99.14216172938812,19.243717692340198],[-99.14235835788486,19.244105118481528],[-99.14415366154944,19.24469432731793],[-99.14417373437591,19.243451954724407],[-99.14403694933648,19.242701312757447],[-99.14412545228224,19.241817217300905],[-99.14408270695724,19.240848636732565],[-99.14392882378597,19.240453131357924],[-99.14389462752558,19.239613688220416],[-99.14604110372431,19.239305097749693],[-99.14615224157059,19.239458458162005],[-99.14634032100176,19.24005575524602],[-99.14681051958064,19.24040283228318],[-99.147323463485,19.24049969085965],[-99.14462848777012,19.234509067202495],[-99.14484480827839,19.234418959051382],[-99.1449580360611,19.234312459286656],[-99.14521956106312,19.234366208903452],[-99.14541504902284,19.23446505066356],[-99.14590434512893,19.234283761735668],[-99.146419696915,19.23416962457901],[-99.14757764847077,19.23445196413371],[-99.14822339280433,19.234783476769294],[-99.14838245199763,19.234969699813504],[-99.14831246595278,19.235119879533883],[-99.14812795728847,19.235312109376494],[-99.1481088701856,19.235744625697407],[-99.14798162283101,19.235954876275528],[-99.14804524650813,19.236171133732213],[-99.14819158096594,19.236189155174117],[-99.14831246595278,19.235858761759317],[-99.14836972726239,19.23564250389201],[-99.14863465625643,19.23554927263406],[-99.14878195451149,19.23542266701402],[-99.14887739004396,19.2350922720549],[-99.14921817406555,19.2347244257914],[-99.14933269670819,19.234544209662715],[-99.14931217301012,19.2343093468576],[-99.14924783063373,19.234222531496513],[-99.14928460124668,19.234035007526003],[-99.14955182071823,19.23401698586521],[-99.14972360464668,19.23421522421745],[-99.14990811331934,19.23411910868954],[-99.15044244558489,19.234135161510608],[-99.15049334452685,19.234501601649683],[-99.15053151873299,19.234639767391286],[-99.15071602739728,19.23461573857557],[-99.15070966503028,19.234321385282996],[-99.15065784465611,19.233858041821605],[-99.15051151019829,19.233569694421504],[-99.15061330808152,19.233023034386534],[-99.15060525215112,19.23250020266056],[-99.15070705003346,19.232265918496054],[-99.15087883396191,19.23197756829981],[-99.15118422761269,19.231466946918786],[-99.15143235995411,19.231190609980573],[-99.1516614051923,19.230914272576754],[-99.1517759272446,19.23049355135987],[-99.15179501434746,19.230067028579597],[-99.15233581560454,19.22923200190172],[-99.15257758557784,19.22831887434441],[-99.15269210819694,19.227784211774235],[-99.15286773785445,19.226915460193652],[-99.15299498520903,19.226536988129865],[-99.15328765412431,19.226134485137052],[-99.15335764016919,19.226032357355464],[-99.15312223251414,19.225317461107238],[-99.15267812061859,19.224941748026538],[-99.15225820408364,19.22471346060462],[-99.15161325155023,19.224602471311684],[-99.15117424838921,19.2243861986656],[-99.15108517928815,19.224019732910676],[-99.15112335349461,19.223653269387654],[-99.15116152770074,19.223412964994253],[-99.15121878901047,19.223286805047366],[-99.15147964608703,19.223202698361817],[-99.15160689344161,19.223400949765306],[-99.15175322789942,19.22308254587992],[-99.1519822731376,19.22268604206471],[-99.15222404310299,19.22234360618056],[-99.15226221725068,19.221817838410374],[-99.15233220330805,19.2212857062666],[-99.15255488613667,19.220714974475143],[-99.15319397717234,19.220849109151473],[-99.15333413334189,19.22161185292292],[-99.1535631785797,19.222272696402456],[-99.15429484435636,19.220812833810257],[-99.13881723166942,19.216409305797654],[-99.13265889513569,19.209835753904457],[-99.13276446366362,19.209470255029743],[-99.13276446366362,19.20835713694794],[-99.13237741324807,19.207991633844856],[-99.13243019285039,19.20726062520255],[-99.13253575205455,19.206529613310124],[-99.13204314243434,19.20589828224314],[-99.13125144806558,19.205300176651505],[-99.13132932427766,19.20492615933931],[-99.13092468066132,19.20419513707145],[-99.13014466213669,19.203955160995278],[-99.1302603638092,19.20319031612641],[-99.12937813855595,19.202985446361396],[-99.1294938441335,19.200622598755714],[-99.12897318660694,19.200048953816918],[-99.12890087306178,19.19943433202087],[-99.1291911279084,19.198790515880162]],"type":"LineString"}},{"type":"Feature","properties":{},"geometry":{"coordinates":[[-99.12919936223527,19.198803177988154],[-99.12904687801998,19.198839944844707],[-99.12899496848662,19.198692877359846],[-99.12900794611161,19.19822525866101],[-99.12930614438757,19.197683346480403],[-99.1296346810541,19.197351354034467],[-99.12968212328494,19.197183338787127],[-99.12971770495828,19.19684730777783],[-99.13013282447952,19.1963320588968],[-99.13037003563427,19.196253651317406],[-99.13057166507024,19.195996026139326],[-99.13025830057639,19.195597806233565],[-99.13012783444105,19.19532897889121],[-99.13016191955134,19.194641775411412],[-99.1303169175092,19.193771908242482],[-99.13102291631232,19.192113561654182],[-99.13125370834925,19.191231239136442],[-99.1310677227599,19.190509121894863],[-99.13071641664675,19.19004071982789],[-99.12939823667558,19.18958605905459],[-99.12840631336422,19.18888345137445],[-99.127732512443,19.18855358643519],[-99.12735357905801,19.18807860344063],[-99.12725744618568,19.187497350211174],[-99.12723678112071,19.18718507660239],[-99.12767074749547,19.18628728667818],[-99.12862135114725,19.185350461639928],[-99.12903465245705,19.184667353444695],[-99.12932396337355,19.184589283755997],[-99.129551279094,19.184277004632094],[-99.1298405900105,19.184257487167102],[-99.1302952213478,19.18400375981696],[-99.13028524031346,19.182890594815277],[-99.13030590537899,19.18212940556141],[-99.13078120199833,19.181680497578796],[-99.13137416257638,19.180770266069374],[-99.13198544512306,19.179442999668538],[-99.13237371604703,19.17773177053172],[-99.13217323605521,19.176841300968846],[-99.1322418086099,19.175379491034064],[-99.13244465759522,19.173918141660977],[-99.13152053754318,19.173181813954713],[-99.13045052012572,19.17197278144789],[-99.12991633530888,19.171146354384604],[-99.12944798289874,19.17032101797038],[-99.1292544997289,19.169786712057956],[-99.12931611990756,19.16949783892821],[-99.12945188234697,19.169390976739194],[-99.13029379420396,19.169541201917056],[-99.13045837150943,19.169360125041152],[-99.1305880029745,19.167896824817035],[-99.13018568022439,19.1668152297037],[-99.1301566115841,19.16559988630071],[-99.13021186180539,19.1646624728768],[-99.13008586715482,19.163006601444224],[-99.13017871094947,19.161515708615596],[-99.1309214616711,19.160024802186584],[-99.13373968523281,19.157195691874165],[-99.1335539976431,19.156377135304155],[-99.13358494549739,19.15482771345802],[-99.13421080841715,19.151930325108566],[-99.13408701650641,19.15119944750792],[-99.13354068213788,19.149860861381313],[-99.13303038844349,19.148399741315515],[-99.13312323223857,19.147756555773313],[-99.13315418017027,19.147405726239825]],"type":"LineString"}},{"type":"Feature","properties":{},"geometry":{"coordinates":[[-99.1331633929138,19.147426658856787],[-99.1328990263002,19.147188533303606],[-99.1325301426289,19.147089798212193],[-99.13194607685405,19.14680520851533],[-99.1316017854503,19.146752936885548],[-99.13091935070292,19.146915559680806],[-99.13005862219288,19.1467994005572]],"type":"LineString"}},{"type":"Feature","properties":{},"geometry":{"coordinates":[[-99.1300431820905,19.146773799153493],[-99.13092594083855,19.146866975197085],[-99.13159664022244,19.14669925827988],[-99.13198130604535,19.146759822742354],[-99.13256882656675,19.147026755267632],[-99.13291897109809,19.147110613580594],[-99.1332099362724,19.147371505840553],[-99.14323539926563,19.15591892095206],[-99.14303403674867,19.143538673717984],[-99.1515705254712,19.120723565022814],[-99.1541421621541,19.11340846233246],[-99.14115992247552,19.099940144916957],[-99.13892432978713,19.09742661190812],[-99.13708675186255,19.09415984470442],[-99.1361629848902,19.09121700163074],[-99.13528862217524,19.088994866557428],[-99.12542360398304,19.06194346085681],[-99.05985694735578,19.04822832124053],[-99.04327958294347,19.075555628737135],[-99.02882819905264,19.085446523618927],[-98.98381725440781,19.078907904053736],[-98.97899424820382,19.074401998636915],[-98.9730244096315,19.08031638333952],[-98.96675512103829,19.083812590780752],[-98.9653352220402,19.086342852973388],[-98.96189243515744,19.094559363594854],[-98.95945034173675,19.104102251639887],[-98.95839234332604,19.111361401514742],[-98.95838194860734,19.11523479117301],[-98.95719427782065,19.122148199642936],[-98.9618820686973,19.134539822104273],[-98.96648400366452,19.143260903449573],[-98.95440752024413,19.149976982385],[-98.96743503353105,19.16486728550207],[-98.9523887312905,19.169239105485758],[-98.95633015412575,19.177742268660168],[-98.95999985879955,19.178834901261524],[-98.96796268682884,19.18902084065536],[-98.96729518900649,19.198419331791385],[-98.96748887104592,19.203811343706107],[-98.9695190816372,19.204288401450142],[-98.96732073414626,19.20765272782795],[-98.96683975857887,19.20891620435981],[-98.96841561689945,19.21051120105915],[-98.96854308687071,19.21044166197356],[-98.97193387432218,19.21217582923701],[-98.97285903328549,19.213101462217693],[-98.97363550598696,19.21408949167305],[-98.97497918924337,19.21460430466675],[-98.97845348483627,19.215158469743443],[-98.9907293216899,19.225908112596784],[-98.99138275447149,19.225445370011457],[-98.99140998083747,19.22466127543376],[-98.99341111873046,19.22484123189716],[-98.99375144830407,19.227463432289213],[-98.99516721933041,19.227489139929148],[-98.99571174664847,19.224969772107215],[-98.99651492444217,19.225201144232557],[-98.99621543441717,19.225946674420214],[-98.99640601897865,19.226190899090824],[-98.99705945175987,19.226383707784706],[-98.99749507361439,19.226460831199205],[-98.9974814604314,19.227463432289213],[-98.99867942053066,19.227694800902697],[-98.99897522494182,19.22729316730488],[-98.99947317981136,19.227440098099237],[-98.99981552465756,19.226695647436642],[-99.00337905921646,19.227677648687262],[-99.00351392193859,19.227109516378675],[-99.00004772379228,19.226429969892465],[-99.00016183845028,19.226351606337758],[-99.00088802263527,19.22639078812034],[-99.02971173582051,19.223402814918487],[-99.09127288801147,19.210655791310458],[-99.09370307331406,19.21062626535584],[-99.09434760931742,19.21129287546742],[-99.0946852234147,19.210916096171488],[-99.09486937655826,19.20961185347862],[-99.09551391258938,19.208365567450826],[-99.09732236183562,19.208513494175065],[-99.09839658850804,19.20804975784978],[-99.09916389327392,19.208107724962176],[-99.09986981365877,19.207267199835385],[-99.10002327461203,19.205962928203476],[-99.10082127156866,19.205731056608414],[-99.10161926852527,19.204571693729932],[-99.10201826700357,19.20039791970825],[-99.10458166430297,19.19909260003348],[-99.10464614305673,19.1986054589361],[-99.1043559886657,19.198224878950626],[-99.10454942492609,19.197707288757144],[-99.1049846565126,19.19792041432794],[-99.13004877019033,19.146767631928455]],"type":"LineString"}},{"type":"Feature","properties":{},"geometry":{"coordinates":[[-99.13606714560896,19.089598760511137],[-99.13738677868118,19.0937349444644],[-99.13914556319136,19.096913352236285],[-99.14618970802468,19.104722704259487],[-99.1545112167295,19.1132819612218],[-99.14337354494252,19.144014784481698],[-99.14345667415749,19.15631086444037],[-99.13345011981275,19.14790903789958],[-99.13474067097182,19.152225269627635],[-99.13396873578286,19.155430475298502],[-99.13422731280444,19.15720259396656],[-99.13082906474838,19.16086675030118],[-99.1301930162519,19.16274374925294],[-99.13042338581215,19.16574355985449],[-99.13030820122067,19.166749930906605],[-99.13073992394393,19.1679891196178],[-99.13050955434669,19.16962109576643],[-99.13008172509518,19.169745436144225],[-99.1296538955348,19.169574468300155],[-99.12924252125457,19.169683266166658],[-99.12986781016032,19.170880037953296],[-99.13050086659364,19.171929279683326],[-99.13147170989501,19.173079408485037],[-99.13262355787982,19.173840975841884],[-99.13231091342722,19.17550397803909],[-99.13227800352038,19.17684058445768],[-99.13250837311716,19.177679843412548],[-99.13194777045108,19.179945773276856],[-99.13079592250176,19.18173304518791],[-99.13045036810662,19.1822769936564],[-99.13048327804913,19.18412640501181],[-99.12961116417263,19.184390605100006],[-99.1292985193263,19.184779133799893],[-99.12899241418032,19.184873924545727],[-99.12854812995757,19.185682060494628],[-99.12761019659825,19.186381405710392],[-99.12724818723181,19.187267238720295],[-99.12742919191525,19.188153066964375],[-99.12848231007251,19.18875915722745],[-99.1294696085345,19.189551733241913],[-99.13107197337972,19.190158509587903],[-99.13128588800569,19.191261889574207],[-99.13110488288284,19.192132156045048],[-99.13058704026416,19.193279162150418],[-99.13025794056749,19.194351440952758],[-99.13024148554115,19.195306186404423],[-99.13063640485012,19.196083191032812],[-99.1303530750689,19.196291678062707],[-99.13014119596065,19.19642299241032],[-99.12979027118752,19.196854453098965],[-99.12972405896633,19.19747350341531],[-99.12932016441594,19.197829925268124],[-99.12906193661772,19.198236370291596],[-99.12907039752172,19.19881372636273],[-99.12934186762936,19.19873869069565],[-99.12899094285623,19.199313963267144],[-99.12893585916025,19.199515791489816],[-99.12902855627044,19.200041037958428],[-99.1295781177075,19.20066632918673],[-99.12945742092093,19.20295779360589],[-99.13029831625052,19.203145377880006],[-99.13019899791855,19.203939482347607],[-99.13095381724169,19.204177087663794],[-99.13139743912464,19.20493367072639],[-99.13127163590444,19.205327592761236],[-99.13214786593781,19.205932208500784],[-99.1325981090429,19.20656373001337],[-99.13241271481625,19.207958070901213],[-99.13282323058841,19.20848329041354],[-99.1328045683475,19.209542222658342],[-99.1327052500155,19.209823587752467],[-99.13890240070643,19.216355772633975],[-99.15438098648116,19.220760301675043],[-99.15361364224654,19.222323149552793],[-99.15350449386406,19.222283509870863],[-99.15315186062782,19.22090404298723],[-99.152606118715,19.220769266865673],[-99.1524046139698,19.221292514731772],[-99.15227027746064,19.222373467695945],[-99.15159859530212,19.223475446522073],[-99.15144710869949,19.22333375895333],[-99.15117843575781,19.223357542611623],[-99.15112805958107,19.22401555579016],[-99.15121201987516,19.224372308822026],[-99.1516271407574,19.224559452852503],[-99.15234513775746,19.22469918462083],[-99.1528329372465,19.225004523996176],[-99.15313986726161,19.22528398665584],[-99.15343035459792,19.22614824780007],[-99.15301928761295,19.226582964261823],[-99.15237254358466,19.229276729350076],[-99.15184089695106,19.230120269179054],[-99.15175304140782,19.23082376759146],[-99.15162698086601,19.23105664492546],[-99.15122139477421,19.23146029818774],[-99.1506568627817,19.232443551982158],[-99.15064602416813,19.233121738890432],[-99.1505469078056,19.233554264054476],[-99.1507168154926,19.233869936890457],[-99.15076614353093,19.234625479243178],[-99.15048113708843,19.234672053658244],[-99.15042084726377,19.234185609118455],[-99.14992208598908,19.23413903456543],[-99.14972477383633,19.234237358606336],[-99.14952746168358,19.23403553551141],[-99.14928082149247,19.2340665852345],[-99.14929178327877,19.23422183376171],[-99.1493685157199,19.234387432060032],[-99.14931918768218,19.234666878756173],[-99.14905610481163,19.235013598996147],[-99.14885331176573,19.23530856937012],[-99.14873243664545,19.235561924232655],[-99.14846387268577,19.235701646700292],[-99.14829944589127,19.236017315407054],[-99.14817338534948,19.236234660720882],[-99.1479979967693,19.236172562090005],[-99.14793222611041,19.236017315386235],[-99.1480308821871,19.23574304588888],[-99.1480911720103,19.235437726475837],[-99.14812953832838,19.235262617833328],[-99.14831040780167,19.235050446155284],[-99.14832685048111,19.234921073045612],[-99.1481459810078,19.23479687476562],[-99.14764721959581,19.234538128043226],[-99.14640369691708,19.234191100557936],[-99.14537328900875,19.23449124734934],[-99.14496222202379,19.23434634896624],[-99.14480327612308,19.234460197706582],[-99.1446552920087,19.23451712204718],[-99.1473684460188,19.24053128553885],[-99.14669524087735,19.24043104408807],[-99.14632028268792,19.240108497180316],[-99.14615363460359,19.239424066277678],[-99.14591199488152,19.239353262917774],[-99.14393721508254,19.239691545361126],[-99.14397887721428,19.24047037904694],[-99.144201409975,19.24089565702522],[-99.144201409975,19.241934093484474],[-99.14411808593258,19.24271291651698],[-99.14424307199619,19.24349173585408],[-99.144201409975,19.244766159524957],[-99.14230162257006,19.244113208717465],[-99.142109977273,19.243727734401816],[-99.14182667550955,19.243641199225436],[-99.14163091435131,19.2437503634264],[-99.1410809756733,19.243608760408065],[-99.1403393916982,19.243648094592103],[-99.13892288298146,19.245827193651536],[-99.139164522704,19.24592946112793],[-99.1397550897571,19.246725568756588],[-99.14008648161806,19.24746202417279],[-99.14090305741229,19.248201487816672],[-99.14191963238626,19.248713952576935],[-99.14244496988017,19.24920952898657],[-99.14241164026322,19.25043670919679],[-99.1421116737115,19.250562573315207],[-99.14169505350085,19.25106602882154],[-99.14087847788807,19.251286290119637],[-99.14032581961175,19.253102427953863],[-99.14030915480376,19.253464281152432],[-99.14015917152788,19.254022792132133],[-99.13954257361593,19.254494771759866],[-99.13968422448755,19.25552525589248],[-99.13998419103928,19.256241084570647],[-99.14060078895123,19.256390542912015],[-99.14071744261014,19.256791719889733],[-99.14074243982287,19.257129966383644],[-99.14014250671939,19.257531141553628],[-99.14009796546948,19.257738380960873],[-99.14023857712195,19.258008387874867],[-99.14117942695529,19.2588100609279],[-99.14163770918714,19.25906177621718],[-99.14198767016384,19.259722527013835],[-99.14230130070838,19.260063961252754],[-99.14231796551684,19.261102276391185],[-99.14209299060283,19.26170795718582],[-99.14229248299561,19.262937287071935],[-99.1425424551209,19.26335417982375],[-99.1425341226677,19.26394412062433],[-99.14247579582113,19.26409041491553],[-99.14260911428849,19.264302792876634],[-99.14231367176755,19.266674259694213],[-99.142413660618,19.266650662497852],[-99.14338021950714,19.266414690348228],[-99.14329689546472,19.267248457090375],[-99.14498837352046,19.26746083095999],[-99.14395965590421,19.26957718488849],[-99.14345137924738,19.269506394542972],[-99.14315974509991,19.26997832960032],[-99.14302642663252,19.27029295221722],[-99.14267646565533,19.270607574230056],[-99.14250981757098,19.270749153939164],[-99.1421598565938,19.270749153939164],[-99.14118893950015,19.273662773826402],[-99.14212216891518,19.27392233165901],[-99.14086984575188,19.282530036902727],[-99.13750657932938,19.282186556883005],[-99.12480745061828,19.285389991002816],[-99.10123853480302,19.295482120976658],[-99.10097162795289,19.299947236273837],[-99.10920505361764,19.29932643397521],[-99.12252955475837,19.302927304911094],[-99.13464153631531,19.308064795094808],[-99.1427191560922,19.29930533802043],[-99.14732923581154,19.301130694171988],[-99.1516617344882,19.297859825321865],[-99.15696923202422,19.29668242462823],[-99.15885180593693,19.299315509012217],[-99.1604622004886,19.300407263280988],[-99.16204991342676,19.301028061478505],[-99.17848042558477,19.303486882940504],[-99.19476944622083,19.301721290344673],[-99.19712833401462,19.302192237135074],[-99.2013056204762,19.304611626802867],[-99.20599017493089,19.305636262329713],[-99.21323203022821,19.307003840341736],[-99.21610189634075,19.307879301885535],[-99.21873985408021,19.309958504267584],[-99.21966748757117,19.311736748488016],[-99.22150357318117,19.310943419092553],[-99.22510101073723,19.310812024986106],[-99.22520066747806,19.30996628987714],[-99.22626193047432,19.309102196615342],[-99.22730238439276,19.308414846442503],[-99.22767694791082,19.30802207351593],[-99.227656138833,19.307040137327803],[-99.22871740182924,19.306509889335246],[-99.22930005602345,19.306450972785285],[-99.22969542856491,19.306274222954002],[-99.23002837385476,19.305979639527408],[-99.23093384182192,19.30552742856372],[-99.23189655430073,19.304989596289943],[-99.23191899371214,19.30488868237319],[-99.23193452538175,19.304456259991085],[-99.23201994956406,19.303884581190317]],"type":"LineString"}},{"type":"Feature","properties":{},"geometry":{"coordinates":[[-99.23202405071228,19.3039073600669],[-99.23225568177094,19.30376021973713],[-99.23232695285229,19.302978271746028],[-99.2325313778406,19.302981537886637],[-99.23267161633353,19.302368042741932],[-99.23299602775867,19.301790352325867],[-99.23227987423505,19.301432183243534],[-99.23289809223414,19.30092958982212],[-99.23327759239167,19.300790943088757],[-99.23340613245794,19.30079672026679],[-99.2333143179037,19.30003993813837],[-99.23286136610285,19.299993722322938],[-99.23271446280911,19.299941729497746],[-99.23267522263812,19.299834184258458],[-99.23274867428177,19.299614658741234],[-99.23267522263812,19.29915827580089],[-99.23272419033576,19.29837260170885],[-99.23246098860999,19.29783533651971],[-99.23298206963274,19.29701396553719],[-99.23324378369476,19.296616606223466],[-99.23367225163422,19.29633352821405],[-99.23408847761358,19.29616021491151],[-99.23435780030597,19.295825142006194],[-99.23478626822924,19.29552473122709],[-99.23535551846588,19.295137662685534],[-99.23554526854464,19.294958570961043],[-99.23585131705887,19.295085668333925],[-99.23605330918852,19.295126108316822],[-99.23606301198727,19.294910570728717],[-99.23598896422125,19.2947683922891],[-99.23590382088933,19.294502919496338],[-99.23607164741456,19.294380519331],[-99.23666666884388,19.294330119281184],[-99.23709407843252,19.29427498675234],[-99.23752592203873,19.294327735352155],[-99.2385402621722,19.294687735697167],[-99.23879200196025,19.294558135665568],[-99.23900559935569,19.294594135684846],[-99.2391886828378,19.29447173558698],[-99.23951670740941,19.294478935595293],[-99.23982947505715,19.294320535322186],[-99.24024141289158,19.29408293465218],[-99.24076777790219,19.294154934891864],[-99.24106937724424,19.29406366904726],[-99.24137606859078,19.29399643017547],[-99.24164227559115,19.29363749315543],[-99.24170203634661,19.29345289666773],[-99.24200627291864,19.293247789213694],[-99.24179982667312,19.29288885055186],[-99.242343106267,19.29288885055186],[-99.24270172958549,19.292257918562797],[-99.24294077260504,19.291555419340128],[-99.24295294495796,19.290924089090595],[-99.24278169855917,19.28931713745412],[-99.24242856682288,19.289265859319272],[-99.24220700845098,19.289024627937494],[-99.24181041434778,19.28879900362149],[-99.24135949219747,19.288352881830434],[-99.24091400293072,19.287922142462833],[-99.24095203249593,19.287593959313952],[-99.24082707818904,19.28725551976531],[-99.24102643225002,19.286756445515493],[-99.24153711507492,19.286489794854035],[-99.24173031476573,19.286122900991685],[-99.24174118035762,19.28584599347083],[-99.24255609974722,19.284461448841142]],"type":"LineString"}},{"type":"Feature","properties":{},"geometry":{"coordinates":[[-99.24255132642587,19.28447204833209],[-99.24262130608152,19.284363706758754],[-99.24275225157422,19.28429560156566],[-99.2429522619151,19.28417364573933],[-99.24298967491319,19.284095450794794],[-99.24282666113582,19.283737267024463],[-99.24267433677649,19.283601056050784],[-99.24251262411202,19.283469823660454],[-99.24236029976329,19.283341179791904],[-99.24202854146867,19.283320088200796],[-99.24198578375658,19.283161175027914],[-99.24216483168793,19.282969470059953],[-99.24246413609167,19.28267182239884],[-99.2430226587041,19.282419578196198],[-99.2433967887022,19.28226570900553],[-99.24360535321831,19.28207968721145],[-99.2436320768183,19.28186275638018],[-99.24331883807614,19.281402019071678],[-99.24334556164808,19.281202744639742],[-99.24339807867752,19.28107464934014],[-99.24415067437707,19.28047107779733],[-99.24475729941561,19.280231442592978],[-99.24499453923458,19.28004238692752],[-99.24481461177061,19.279308407093325],[-99.24504280303547,19.278396665749653],[-99.24521650624027,19.2777736056009],[-99.24535546880458,19.276951263476363],[-99.2453123578784,19.276596062593015],[-99.24515468881505,19.276427052750478],[-99.24454271907777,19.2762555202206],[-99.24398233972805,19.27585252513984],[-99.24384070480734,19.275870182954662],[-99.24348808934513,19.275678126790993],[-99.24353084736661,19.275124267885403],[-99.24369920585643,19.274733271190556],[-99.24416219018605,19.273853945118248],[-99.24459812334831,19.272923319759457],[-99.24440363009138,19.272549801972843],[-99.24408171021732,19.27232189239649],[-99.24377320391287,19.271315287817842],[-99.24375979058473,19.271163346991102],[-99.24390733719365,19.27057457495546],[-99.24382685722533,19.270435295240233],[-99.24347140403137,19.270099757257228],[-99.24344457737513,19.2697832113613],[-99.2436658972883,19.269289398541957],[-99.24434327035593,19.268903210557],[-99.24498040344469,19.26849169782821],[-99.24571792375059,19.267779563401973],[-99.24593253699969,19.267741577388833],[-99.2462008035613,19.267526323148772],[-99.24624104352064,19.267190779189235],[-99.24608008358399,19.26655134449996],[-99.24585205528437,19.266082847328008],[-99.24592582858902,19.265411752855286],[-99.24604654854171,19.26498756908292],[-99.24667026829684,19.264683675556583],[-99.24703913481893,19.264145529387235],[-99.24699218803795,19.263366796983647],[-99.24646728765853,19.262879520077448],[-99.24607159451195,19.262518641778186],[-99.24586415440943,19.262145980890196],[-99.24580379444816,19.261626820104127],[-99.2457024368407,19.261231422085146],[-99.2458030368012,19.260807227496883],[-99.245937170082,19.26040835695764],[-99.24629262327596,19.260009485448194],[-99.24676208978165,19.259832208922404],[-99.24627920997095,19.25919274553246],[-99.24589022345708,19.258964817384623],[-99.24528662345023,19.25893316048861],[-99.24474302624267,19.259064064430433],[-99.24442186665604,19.259354416284012],[-99.24400605348558,19.259455717481814],[-99.24376461660543,19.25938607207597],[-99.24364389666145,19.2591708068624],[-99.24363048333335,19.258923884654905],[-99.24379144331503,19.25848702136932],[-99.24437040341147,19.257695467921963],[-99.24475268326128,19.257150967405778],[-99.24503436314639,19.256942030672988],[-99.24489352319203,19.2566824422306],[-99.24478621656746,19.256372201869212],[-99.2450813097849,19.255542780879495],[-99.24518861640985,19.255238869848156],[-99.24517520308173,19.25505525666084],[-99.24485328320766,19.255124903066758],[-99.2445984299746,19.25520721241736],[-99.24475939180634,19.253845938464735],[-99.24460513927788,19.25282655730132],[-99.24449454803641,19.252394932486098],[-99.24478293457979,19.25215433162768],[-99.24498283938561,19.251776574472842],[-99.24524964839323,19.251105142627253],[-99.2451959950939,19.250598609868035],[-99.24527069060322,19.250166074939628],[-99.24623645022459,19.249431598244755],[-99.24661202346392,19.24936194940831],[-99.24686863205667,19.24914501382247],[-99.24753821097329,19.249057479959475],[-99.24780020970756,19.24874047913478],[-99.24776551569366,19.24842553571216],[-99.24897326375729,19.247732149132688],[-99.24948109860331,19.24590524517771],[-99.25018892164275,19.244807469678307],[-99.2503406322051,19.243184662276803],[-99.25145288814458,19.241657312592167],[-99.25114963601233,19.239748123645953],[-99.25307071198338,19.237934357612403],[-99.2543852131012,19.235261480342956],[-99.25390844082774,19.233531590103013],[-99.25643243301282,19.23135954042135],[-99.26207088374709,19.228810331170877],[-99.26373912633058,19.226805843102156],[-99.26641834846622,19.226280878163777],[-99.26866182035889,19.225183734407025],[-99.26983670631054,19.224482222945227],[-99.27128803601597,19.223797022812903],[-99.27173725711515,19.222964990238737],[-99.27246292196763,19.222459242889073],[-99.27289486533219,19.221871921434527],[-99.27349958604265,19.22154563082988],[-99.2737241965925,19.22032203529281],[-99.27334879896561,19.218994618342734],[-99.2735388542076,19.21819519122677],[-99.2741244617843,19.2170652031286],[-99.27502029248214,19.21604064353609],[-99.27676617129497,19.21494447113517],[-99.27674889355947,19.214291861770164],[-99.27740544746588,19.21396555610218],[-99.27873160215523,19.21297077647401],[-99.28001103256197,19.212828638934596],[-99.28141589821276,19.211999500880594],[-99.28456318530407,19.21195857040526],[-99.28626909251261,19.211342636390384],[-99.2887622306337,19.21147198413398],[-99.28891275185812,19.211069257116662],[-99.28964027110875,19.211116636816456],[-99.29024235600612,19.210808668520826],[-99.29081935403232,19.211543053504798],[-99.29262560872407,19.212609090385712],[-99.29529175660599,19.214694488568696],[-99.29659627397523,19.214457595094956],[-99.29833138196308,19.214639942879018],[-99.30079163252758,19.216422260528205],[-99.30327821092038,19.218624204297384],[-99.30462918648604,19.219306545974902],[-99.30569739972393,19.21942521380396],[-99.30547747346924,19.220048218498448],[-99.30667135885274,19.2205228871578],[-99.30695412118048,19.221175554324432],[-99.30817942460051,19.22150188693611],[-99.31028443304027,19.223459868995675],[-99.3104415232224,19.224171856688173],[-99.31216951522485,19.22467617943653],[-99.31370899900915,19.22589248087246],[-99.31565691726678,19.22707910774176],[-99.31631669603134,19.221531553505145],[-99.30717404743517,19.21340271334074],[-99.30612591471252,19.205965479492164],[-99.30468068503778,19.20252379595658],[-99.30285086218633,19.19113349248228],[-99.30117578025813,19.188159068922346],[-99.2956135705815,19.173029387998582],[-99.28753913522371,19.146497524614546],[-99.27859353189025,19.1316108638583],[-99.22680784441677,19.096021616758264],[-99.13606833791368,19.089615369285383]],"type":"LineString"}},{"type":"Feature","properties":{},"geometry":{"coordinates":[[-99.3156565492616,19.227068982968163],[-99.31533431690147,19.22919482749309],[-99.3154347529616,19.229238292428875]],"type":"LineString"}}]}